,Unnamed: 0.1,Unnamed: 0,FACILITY_CODE,SOURCE,STATE,FACILITY,CITY,LATITUDE,LONGITUDE,FLOW_2012_MGD,2012_TOT_ANNUAL_MM3,CWNS_NUM,NPDES_ID,check_sewer_permits,SIC_permits
267,267,267,AL02485,CWNS2012,AL,FARQUAR STATE CATTLE RANCH,Montgomery,32.5782,-87.6838,0.038,0.052539598,1000385001,AL0053180,other_system,[9223]
376,376,376,AR00485,CWNS2012,AR,Cherokee Village WWTP,Cherokee Village,36.3042,-91.5125,0.015,0.020739315,5000049001,AR0034282,other_system,[6552]
378,378,378,AR00505,CWNS2012,AR,Fairfield Bay - Grand Isle WWTP,Fairfield Bay,35.5844,-92.2433,0.004,0.005530484,5000051002,AR0046078,other_system,[6552]
379,379,379,AR00515,CWNS2012,AR,Fairfield Bay - Hamilton Hills WWTP,Fairfield Bay,35.577,-92.2789,0.01,0.01382621,5000051003,AR0037303,other_system,[6552]
710,710,710,AZ00005,CWNS2012,AZ,Pinewood Sanitary District,Munds Park,34.9358,-111.648,0.22,0.304176621,4000000002,AZ0015879,other_system,NO_SIC_MATCH
942,942,942,CA00685,CWNS2012,CA,C & H SUGAR JOINT WWTP,Crockett,38.0571,-122.2197,1.19,1.6453189929749998,6002034002,CA0005240,other_system,"[2062, 2062, 2062, 2062, 2061, 2062, 2062, 2062, 2062, 2062, 2062, 2062]"
1300,1300,1300,CA04265,CWNS2012,CA,Imperial Commun Colleges Dist WWTF,Imperial,32.8255,-115.5054,0.05,0.06913105,6007023001,CA0104299,other_system,"[8222, 8222]"
1452,1452,1452,CO00695,CWNS2012,CO,WHEAT RIDGE STP,0,39.762,-105.1038,1.74,2.405760544,8000132001,COG603136,other_system,"[1629, 1629, 1799, 1629, 1542]"
1471,1471,1471,CO00885,CWNS2012,CO,"Rye, Town of Collection",Rye,37.9222,-104.9378,0.006,0.008295726,8000185001,COG641125,other_system,[4941]
1554,1554,1554,CO01715,CWNS2012,CO,THREE LAKES WSD,0,,,0.13,0.17974073,8000500056,COG650103,other_system,NO_SIC_MATCH
1921,1921,1921,FL01425,CWNS2012,FL,IRCUD/South Regional WWTF,0,27.587,-80.401,1.3,1.797407303,12000116003,FL0037940,other_system,"[4941, 4941]"
1966,1966,1966,FL01875,CWNS2012,FL,KEY WEST WWTP,Key West,24.5694,-81.7968,5.0,6.913105013,12000135001,FLA147222,other_system,NO_SIC_MATCH
2100,2100,2100,FL03215,CWNS2012,FL,Bristol WWTF,Bristol,30.4323,-84.976,0.132,0.182505972,12000272001,FLA284602,other_system,NO_SIC_MATCH
2163,2163,2163,CA05060,ICIS2022,CA,THUNDER VALLEY CASINO WWTP,LINCOLN,38.839111,-121.307556,0.875,1.209793377,0,CA0084697,other_system,"[7011, 7011, 7011, 7011, 1522]"
2329,2329,2329,GA01635,CWNS2012,GA,J H HOUSE SCHOOL,0,33.7227,-84.0087,0.01,0.01382621,13000575002,GAG550142,other_system,"[8211, 8211]"
2514,2514,2514,FL03815,ICIS2022,FL,MILITARY POINT INDUSTRIAL LAGOON,PANAMA CITY,30.1156,-85.6305333,37.0,51.15697709,0,FL0002631,other_system,"[2621, 2621, 2611, 2621, 2611, 2611]"
2808,2808,2808,IA02365,CWNS2012,IA,FT MADISON WESTERLY STL,Fort Madison,40.5524,-91.4338,0.045,0.062217945,19000304002,IA0081001,other_system,[4941]
3049,3049,3049,IA04795,CWNS2012,IA,DIAMOND JO WORTH,Bouton,43.4408,-93.3511,0.022,0.030417662,19000625002,IA0074756,other_system,[5541]
3072,3072,3072,IA05025,CWNS2012,IA,PALO WWTP,Palo,42.0407,-91.4717,0.05,0.06913105,19000663001,IA0047872,other_system,NO_SIC_MATCH
3092,3092,3092,IA05225,CWNS2012,IA,NORTH POLK SCHOOL DISTRICT,Bouton,41.8164,-93.6178,0.014,0.019356694,19000691003,IA0063321,other_system,[8211]
3186,3186,3186,IA06165,CWNS2012,IA,STOUT WWTP,Stout,42.5039,-92.6842,0.02,0.02765242,19000825001,IA0080985,other_system,NO_SIC_MATCH
3339,3339,3339,IA07715,CWNS2012,IA,HONEY CREEK STATE PARK (ADLM),0,40.8921,-92.9499,0.031,0.042861251,19001301001,IA0081221,other_system,[7033]
3544,3544,3544,IL00155,CWNS2012,IL,CANTON OVERFLOW FACILITY,0,40.5642,-89.9777,0.28,0.387133881,17000035002,ILG640037,other_system,[4941]
3856,3856,3856,IL03265,CWNS2012,IL,"Lost Lake Utility District, WWTP",DIXON,41.9172,-89.3688,0.06,0.08295726,17002061001,IL0026590,other_system,[6552]
3858,3858,3858,IL03285,CWNS2012,IL,Otter Creek Lake Utility District,DAVIS,42.4569,-89.3845,0.22,0.304176621,17002063001,IL0048593,other_system,"[4939, 4939]"
3871,3871,3871,IL03415,CWNS2012,IL,Village of Table Grove WWTP/Coll. Sys,Table Grove,40.3636,-90.443,0.072,0.099548712,17002085001,IL0020010,other_system,NO_SIC_MATCH
4539,4539,4539,IN03235,CWNS2012,IN,Campbell Township RSD,0,39.0494,-85.5289,0.25,0.3456552506249999,18004794001,IN0038539,other_system,"[8361, 4941, 8331, 9711, 9711, 8249, 9711]"
4709,4709,4709,IN04935,CWNS2012,IN,SOUTH DEARBORN COUNTY RSD,Lawrenceburg,39.0342,-84.9875,0.03,0.04147863,18120000062,IN0029947,other_system,[6515]
4863,4863,4863,KS01445,CWNS2012,KS,EMMETT WWTP,0,39.3078,-96.0529,0.019,0.026269799,20000416001,KSOO46396,other_system,NO_SIC_MATCH
5140,5140,5140,KS04385,CWNS2012,KS,STOCKTON WWTP,0,39.4298,-99.2797,0.144,0.1990974243599999,20001048001,KS0117625,other_system,NO_SIC_MATCH
5144,5144,5144,KS04425,CWNS2012,KS,CANTON WWTP,0,38.3934,-97.4151,0.119,0.1645318992974999,20001103001,KS0098426,other_system,NO_SIC_MATCH
5196,5196,5196,KS04965,CWNS2012,KS,HILL CITY WWTP,0,39.3572,-99.8339,0.16,0.2212193603999999,20001218001,KS0116882,other_system,NO_SIC_MATCH
5219,5219,5219,KS05205,CWNS2012,KS,BISON WWTP,0,38.517,-99.1884,0.023,0.031800283,20001303001,KS0116688,other_system,NO_SIC_MATCH
5252,5252,5252,KS05545,CWNS2012,KS,RUSH CENTER WWTP,0,38.4619,-99.2995,0.014,0.019356694,20001341001,KS0117102,other_system,NO_SIC_MATCH
5405,5405,5405,KY00535,CWNS2012,KY,Farmdale Sanitation District,Frankfort,38.1083,-84.9336,0.0,0.0,21000086002,KY0054780,other_system,"[6552, 6552]"
5438,5438,5438,KY00865,CWNS2012,KY,Vanceburg-Meadowbrook Subdivision,VANCEBURG,38.6,-83.2564,0.015,0.020739315,21000126002,KY0078123,other_system,"[6552, 6552]"
5586,5586,5586,KY02345,CWNS2012,KY,OCEA - KSR WWTP,LaGrange,38.3893,-85.4216,0.523,0.7231107843075001,21000382004,KY0040126,other_system,"[3449, 9223, 3444, 3469, 9223, 9223, 9223, 9223, 9223, 9223, 9223]"
5616,5616,5616,KY02645,CWNS2012,KY,Hardin Co Water Dist. #1-Fort Knox,Radcliff,37.9539,-85.9892,1.96,2.709937165,21000603001,KY0002917,other_system,[9711]
5629,5629,5629,KY02775,CWNS2012,KY,North Madison Co SD - Executive Pk,Richmond,37.6517,-84.2753,0.14,0.19356694,21000736002,KY0056561,other_system,"[6552, 6552]"
5630,5630,5630,KY02785,CWNS2012,KY,North Madison Co SD - Battlefield,Richmond,37.6578,-84.2611,0.07,0.09678347,21000736003,KY0102971,other_system,[6552]
5682,5682,5682,LA00415,CWNS2012,LA,IDA STP,0,32.9986,-93.9237,0.025,0.034565525,22000608001,LAG560287,other_system,[9511]
5936,5936,5936,KY02865,ICIS2022,KY,NEW MARION WWTP,MARION,37.331667,-88.081389,0.0,0.0,0,KY0113247,other_system,NO_SIC_MATCH
5943,5943,5943,LA02955,ICIS2022,LA,MINDEN DIESEL POWER PLANT,MINDEN,32.609167,-93.290278,0.5,0.6913105012499999,0,LA0109886,other_system,"[4911, 4911, 4911, 4911]"
5944,5944,5944,LA02960,ICIS2022,LA,MINDEN STEAM POWER PLANT,MINDEN,32.603611,-93.295,0.5,0.6913105012499999,0,LA0109894,other_system,"[4911, 4911, 4911, 4911]"
6093,6093,6093,MD00115,CWNS2012,MD,Pleasant Valley WWTP,Snydersburg,39.3585,-77.1481,0.019,0.026269799,24000005007,MD0024546,other_system,"[6515, 7033, 6515]"
6142,6142,6142,MD00615,CWNS2012,MD,Jude House Package WWTP (Bel Alton WWTP),La Plata,38.4662,-76.9939,0.01,0.01382621,24000042023,MD0050334,other_system,"[6513, 6513]"
6213,6213,6213,MD01325,CWNS2012,MD,EASTERN PRERELEASE STP,0,39.1168,-75.988,0.01,0.01382621,24000090009,MD0023876,other_system,"[9223, 4941, 9223, 9223, 9223, 4941, 9223]"
6214,6214,6214,MD01335,CWNS2012,MD,Southern MD Prerelease U,0,38.5083,-76.8147,0.02,0.02765242,24000090012,MD0023914,other_system,"[9223, 9223, 9223, 9223, 9223]"
6254,6254,6254,MD01760,CWNS2012,MD,Chopticon High School WWTP,MORGANZA,38.3576,-76.7039,0.001,0.001382621,24000063019,MD0051918,other_system,"[8211, 8211, 8211, 8211, 8211]"
6255,6255,6255,MD01765,CWNS2012,MD,SWALLOW FALLS STATE PARK,OAKLAND,39.494,-79.4253,0.01,0.01382621,24000090016,MD0052850,other_system,"[7999, 7999]"
6259,6259,6259,MD01785,CWNS2012,MD,ASSATEAGUE STATE PARK TP,BERLIN,38.3436,-75.2392,0.01,0.01382621,24000090041,MD0021091,other_system,"[9512, 9512]"
6426,6426,6426,MI00245,CWNS2012,MI,STOCKBRIDGE WWTP,0,42.4485,-84.1753,0.07,0.09678347,26000068002,MI0057208,other_system,NO_SIC_MATCH
6497,6497,6497,MI00955,CWNS2012,MI,SAND LAKE LAGOONS,0,42.9899,-85.6765,0.04,0.05530484,26000359011,MIG960066,other_system,NO_SIC_MATCH
6518,6518,6518,MI01165,CWNS2012,MI,EAST CHINA REG CS,0,42.7587,-82.4835,0.6,0.829572602,26000466001,MIG610369,other_system,NO_SIC_MATCH
6522,6522,6522,MI01205,CWNS2012,MI,HARTLAND TWP. CS,0,42.6513,-83.754,0.58,0.801920181,26000471001,MIG610197,other_system,NO_SIC_MATCH
6694,6694,6694,MI02925,CWNS2012,MI,GAYLORD SEWAGE LAGOONS,0,45.0197,-84.6736,0.35,0.4839173508749999,26003055001,MIG960013,other_system,NO_SIC_MATCH
6732,6732,6732,MI03305,CWNS2012,MI,ONTONAGON STP,0,46.7708,-89.5625,0.42,0.580700821,26003127001,MIG640212,other_system,[4941]
6942,6942,6942,MN01435,CWNS2012,MN,BLACKDUCK WWTP,0,47.7404,-94.5853,0.125,0.1728276253124999,27007006001,MN0022837,other_system,NO_SIC_MATCH
7080,7080,7080,MN02095,ICIS2022,MN,CRYSTAL LAKE FLOCCULATION TREATMENT FACILITY,ROBBINSDALE,45.0217206,-93.3268998,0.72,0.995487122,0,MN0069957,other_system,"[4941, 4941]"
7157,7157,7157,MO00475,CWNS2012,MO,SPRINGFIELD NW WWTP,SPRINGFIELD,37.2739,-93.3102,3.6,4.9774356090000005,29001026002,MO0103039,other_system,NO_SIC_MATCH
7183,7183,7183,MO00735,CWNS2012,MO,MILAN WWTP,0,40.2021,-93.1167,0.5,0.6913105012499999,29001048001,MO0048151,other_system,NO_SIC_MATCH
7199,7199,7199,MO00895,CWNS2012,MO,PILOT GROVE EAST WWTP,0,38.8698,-92.8998,0.049,0.067748429,29001066001,MO0093076,other_system,NO_SIC_MATCH
7200,7200,7200,MO00905,CWNS2012,MO,PILOT GROVE WEST WWTP,0,38.8698,-92.8998,0.025,0.034565525,29001066002,MO0093068,other_system,NO_SIC_MATCH
7228,7228,7228,MO01185,CWNS2012,MO,PINEVILLE WWTP,0,36.5875,-94.3909,0.068,0.094018228,29001094001,MO0096679,other_system,NO_SIC_MATCH
7240,7240,7240,MO01305,CWNS2012,MO,FILLMORE WWTF,0,40.0275,-94.9804,0.015,0.020739315,29001111001,MO0117722,other_system,NO_SIC_MATCH
7266,7266,7266,MO01575,CWNS2012,MO,WESTON WWTP,0,39.4024,-94.901,0.16,0.2212193603999999,29001152001,MO0031585,other_system,NO_SIC_MATCH
7426,7426,7426,MO03185,CWNS2012,MO,KINGSVILLE WWTP,0,38.7369,-94.0736,0.037,0.051156977,29002154001,MO0025844,other_system,NO_SIC_MATCH
7448,7448,7448,MO03405,CWNS2012,MO,LABADIE WWTP,0,38.5319,-90.8461,0.02,0.02765242,29002211002,MO0114910,other_system,NO_SIC_MATCH
7461,7461,7461,MO03535,CWNS2012,MO,"FCPWSD #3, Lakewood Mobile Home Park",Villa Ridge,38.4724,-90.9039,0.012,0.016591452,29002214004,MO0112275,other_system,"[6515, 6515]"
7491,7491,7491,MO03835,CWNS2012,MO,GIDEON WWTP,0,36.4434,-89.9109,0.12,0.1659145202999999,29002293001,MO0021423,other_system,NO_SIC_MATCH
7502,7502,7502,MO03955,CWNS2012,MO,ORAN WWTP,0,37.0713,-89.6511,0.15,0.20739315,29002322001,MO0043532,other_system,NO_SIC_MATCH
7562,7562,7562,MO04565,CWNS2012,MO,AMORET WWTP,AMORET,38.2644,-94.5856,0.02,0.02765242,29002462001,MO0128767,other_system,NO_SIC_MATCH
7563,7563,7563,MO04575,CWNS2012,MO,AMSTERDAM WWTP,0,38.3431,-94.5837,0.039,0.053922219,29002463001,MO0125091,other_system,NO_SIC_MATCH
7566,7566,7566,MO04605,CWNS2012,MO,RICH HILL WWTF,0,38.11,-94.3596,0.23,0.318002831,29002469001,MO0092517,other_system,NO_SIC_MATCH
7570,7570,7570,MO04645,CWNS2012,MO,MINDENMINES WWTP,0,37.4664,-94.575,0.03,0.04147863,29002474001,MO0116581,other_system,NO_SIC_MATCH
7590,7590,7590,MO04845,CWNS2012,MO,CABOOL WWTP,0,37.1344,-92.0804,0.9,1.244358902,29002511001,MO0026301,other_system,NO_SIC_MATCH
7592,7592,7592,MO04865,CWNS2012,MO,HOUSTON BRUSHY CREEK WWTP,Houston,37.3325,-91.9565,0.3,0.414786301,29002513001,MO0039675,other_system,NO_SIC_MATCH
7594,7594,7594,MO04885,CWNS2012,MO,SUMMERSVILLE  WWTP,0,37.1671,-91.6471,0.05,0.06913105,29002515001,MO0109053,other_system,NO_SIC_MATCH
7611,7611,7611,MO05065,CWNS2012,MO,BRASHEAR WWTP,0,40.1428,-92.3834,0.048,0.066365808,29003045001,MO0046990,other_system,NO_SIC_MATCH
7630,7630,7630,MO05255,CWNS2012,MO,ELSBERRY WWTP,0,39.1625,-90.7762,0.19,0.26269799,29003159001,MO0054691,other_system,[4941]
7631,7631,7631,MO05265,CWNS2012,MO,EAGLEVILLE WWTP,0,40.4587,-93.9762,0.03,0.04147863,29003160001,MO0113930,other_system,NO_SIC_MATCH
7640,7640,7640,MO05355,CWNS2012,MO,GREENCASTLE WWTP,0,40.2552,-92.8731,0.02,0.02765242,29003236001,MO0103322,other_system,NO_SIC_MATCH
7663,7663,7663,MO05585,CWNS2012,MO,MONETT WWTP,0,36.9165,-93.9405,3.5,4.839173509,29003471001,MO0021440,other_system,NO_SIC_MATCH
7704,7704,7704,MO05995,CWNS2012,MO,TROY WWTP,TROY,38.9853,-90.9488,1.3,1.797407303,29003742001,MO0054623,other_system,NO_SIC_MATCH
7706,7706,7706,MO06015,CWNS2012,MO,TRENTON MAIN WWTP,0,40.0607,-93.5913,1.4,1.935669404,29003744001,MO0039748,other_system,NO_SIC_MATCH
7723,7723,7723,MO06195,CWNS2012,MO,ATLANTA WWTP,0,39.8987,-92.4844,0.03,0.04147863,29004000001,MO0093165,other_system,"[1629, 1629]"
7751,7751,7751,MO06475,CWNS2012,MO,BUCKLIN WEST WWTP,0,39.7829,-92.8993,0.016,0.022121936,29004037001,MO0085910,other_system,NO_SIC_MATCH
7752,7752,7752,MO06485,CWNS2012,MO,BUCKLIN EAST WWTP,0,39.7697,-92.8781,0.045,0.062217945,29004037002,MO0085928,other_system,NO_SIC_MATCH
7863,7863,7863,MO07595,CWNS2012,MO,PERSHING STATE PARK,Jefferson City,39.7854,-93.2154,0.004,0.005530484,29004593001,MO0051748,other_system,"[9512, 9512]"
7882,7882,7882,MO08180,CWNS2012,MO,TRAIL OF TEARS S.P.,JACKSON,39.1965,-94.6208,0.001,0.001382621,29001031100,MO0104663,other_system,[9512]
7886,7886,7886,MO08200,CWNS2012,MO,WATKINS MILL STATE PARK,LAWSON,39.4078,-94.2693,0.01,0.01382621,29001530000,MO0034959,other_system,"[7033, 7033]"
7888,7888,7888,MO08210,CWNS2012,MO,STOCKTON LAKE STATE PARK,STOCKTON,37.6233,-93.754,0.005,0.006913105,29002504000,MO0095893,other_system,"[9512, 4231, 4231, 9512, 9512, 4231, 7999, 9512]"
7889,7889,7889,MO08215,CWNS2012,MO,ROARING RIVER STATE PARK,CASSVILLE,36.5756,-93.8155,0.05,0.06913105,29003081000,MO0034843,other_system,[9512]
7892,7892,7892,MO08230,CWNS2012,MO,CROWDER STATE PARK,TRENTON,40.0914,-93.6715,0.002,0.002765242,29003744000,MO0034517,other_system,"[1629, 9512, 1629, 9512]"
7893,7893,7893,MO08235,CWNS2012,MO,LAKE WAPPAPELLO STATE PARK,WILLIAMSVILLE,36.9388,-90.3353,0.008,0.011060968,29003867000,MO0120057,other_system,[7033]
7895,7895,7895,MO08245,CWNS2012,MO,LAKE OZARK S.P. - BEACH #1,KAISER,38.0769,-92.5743,0.02,0.02765242,29004010000,MO0097845,other_system,"[9512, 4491, 4491]"
7896,7896,7896,MO08250,CWNS2012,MO,"MDNR, CAMP HAWTHORN",KAISER,38.1145,-92.6431,0.009,0.012443589,29004010001,MO0112666,other_system,[9512]
7900,7900,7900,MO08270,CWNS2012,MO,MARK TWAIN STATE PARK & H,STOUTSVILLE,39.5057,-91.8026,0.007,0.009678347,29004079101,MO0114138,other_system,[7033]
8016,8016,8016,MS01105,CWNS2012,MS,GLENDALE UTILITY DISTRICT,0,31.3581,-89.2842,0.126,0.174210246,28000471001,MS0055964,other_system,"[6552, 6552, 6552, 6552]"
8126,8126,8126,MS02335,CWNS2012,MS,Rawls Springs Util Dist - Lakewood,Hattiesburg,31.321,-89.3819,0.128,0.176975488,28001086002,MS0038792,other_system,"[6552, 6552]"
8208,8208,8208,MS03215,CWNS2012,MS,JOURDAN RIVER SHORES SUBDIVISION,Bay St Louis,30.3928,-89.4411,0.065,0.089870365,28001508001,MS0022870,other_system,"[6552, 6552]"
8230,8230,8230,MS03925,CWNS2012,MS,PHILIPP Water & Sewer Association,0,33.7523,-90.1998,0.022,0.030417662,28001806001,MS0055361,other_system,"[6552, 6552]"
8231,8231,8231,MS03955,CWNS2012,MS,TUNICA CO UD - WHITE OAK WWTF,TUNICA,34.7211,-90.4482,0.053,0.073278913,28001823001,MS0047872,other_system,"[6552, 6552]"
8232,8232,8232,MS03965,CWNS2012,MS,TUNICA CO UD - MHOON SEWER COMPANY,TUNICA,34.7211,-90.4482,0.025,0.034565525,28001824001,MS0047872,other_system,"[6552, 6552]"
8234,8234,8234,MS03985,CWNS2012,MS,TUNICA COUNTY UTIL DIST - CUTOFF,TUNICA,34.7211,-90.4482,0.05,0.06913105,28001825003,MS0047872,other_system,"[6552, 6552]"
8455,8455,8455,NC00335,CWNS2012,NC,BELVILLE WWTP,0,34.2171,-78.0039,0.1,0.1382621,37001015001,NC0075540,other_system,NO_SIC_MATCH
8471,8471,8471,NC00495,CWNS2012,NC,MILTON WWTP,0,36.5308,-79.2115,0.013,0.017974073,37001504001,NC0087645,other_system,NO_SIC_MATCH
8542,8542,8542,NC01205,CWNS2012,NC,CRAMERTON WWTP,0,35.2383,-81.0554,0.84,1.161401642,37003610001,NC0006033,other_system,"[2262, 2262, 2262, 2262]"
8565,8565,8565,NC01435,CWNS2012,NC,BLUE RIDGE PAPER PRODUCTS,0,35.5356,-82.8419,20.4,28.20546845,37004401002,NC0000272,other_system,"[2621, 2621, 2621, 2621, 9999, 2621, 9999, 2621, 2621, 2621, 2611, 2621, 2621]"
8578,8578,8578,NC01565,CWNS2012,NC,HARMONY WWTP,0,35.9422,-80.7878,0.08,0.1106096801999999,37004903001,NC0087033,other_system,NO_SIC_MATCH
8599,8599,8599,NC01775,CWNS2012,NC,KILLIAN CREEK WWTP,Lincolnton,35.4184,-81.0347,0.0,0.0,37005507001,NC0088722,other_system,NO_SIC_MATCH
8662,8662,8662,NC02405,CWNS2012,NC,FRANKLINVILLE WWTP,0,35.737,-79.6854,0.073,0.1009313331824999,37007610001,NC0007820,other_system,"[2261, 2261]"
8679,8679,8679,NC02575,CWNS2012,NC,ROWAN COUNTY SECOND CRK WWTP,0,35.7193,-80.6002,0.05,0.06913105,37008008001,NC0078361,other_system,"[8211, 8211, 8211]"
8684,8684,8684,NC02625,CWNS2012,NC,CLIFFSIDE S.D. WWTP,0,35.2597,-81.7817,1.43,1.977148034,37008110001,NC0004405,other_system,"[2211, 2211, 2211, 2261, 2261, 2211, 9999]"
8691,8691,8691,NC02695,CWNS2012,NC,LAUR./MAX. AIRPORT WWTP,0,34.7944,-79.3727,0.12,0.1659145202999999,37008307001,NC0044725,other_system,"[2514, 2514, 2514]"
8758,8758,8758,NC03335,CWNS2012,NC,South Harnett Regional WWTP,SPRING LAKE,35.2303,-78.8833,6.0,8.295726015,37004308001,NC0088366,other_system,NO_SIC_MATCH
8762,8762,8762,NC03355,CWNS2012,NC,RIVERSTONE INDUS. PARK WWTP,FOREST CITY,35.2058,-81.8414,0.035,0.048391735,37008108001,NC0087084,other_system,NO_SIC_MATCH
9484,9484,9484,NE04345,CWNS2012,NE,ULYSSES WWTP,0,40.8968,-97.3449,0.03,0.04147863,31002470001,NE0024368,other_system,"[4941, 4941]"
9532,9532,9532,NH00075,CWNS2012,NH,Winchester WWTF,WINCHESTER,42.7702,-72.3893,0.18,0.24887178,33000019001,NHG580404,other_system,NO_SIC_MATCH
9534,9534,9534,NH00095,CWNS2012,NH,Colebrook WWTF,Colebrook,44.8959,-71.4996,0.199,0.275141579,33000021001,NHG580315,other_system,NO_SIC_MATCH
9568,9568,9568,NH00435,CWNS2012,NH,Hopkinton WWTF,Hopkinton,43.2203,-71.6952,0.05,0.06913105,33000066001,NHG580579,other_system,NO_SIC_MATCH
9580,9580,9580,NH00555,CWNS2012,NH,Pease Development WWTF,Portsmouth,43.0826,-70.7968,0.73,1.009313332,33000083002,NH0090000,other_system,"[9711, 9711, 9711, 9711]"
9690,9690,9690,NJ00765,CWNS2012,NJ,Montgomery Township - Oxbridge CS/STP,Belle Mead,40.4333,-74.645,0.04,0.05530484,34002539006,NJ0067733,other_system,"[4941, 4941, 4941]"
9778,9778,9778,NJ01665,CWNS2012,NJ,Hampton Township - Hampton Commons CS/STP,Newton,41.0716,-74.7371,0.05,0.06913105,34009507002,NJ0050580,other_system,"[6513, 6513, 6513, 6513]"
9779,9779,9779,NJ01675,CWNS2012,NJ,Burlington County LTP /Sludge Mgmt,FLORENCE,40.0786,-74.7571,0.028,0.038713388,34007206002,NJ0055395,other_system,"[9511, 9511, 9511]"
9801,9801,9801,NM00215,CWNS2012,NM,LOS ALAMOS STP,0,35.8803,-106.3036,0.8,1.106096802,35000030005,NM0020141,other_system,NO_SIC_MATCH
9867,9867,9867,NM00875,CWNS2012,NM,ELEPHANT BUTTE S.P.,0,33.1454,-107.1776,0.14,0.19356694,35001117001,NM0024937,other_system,[9512]
9887,9887,9887,NM01075,CWNS2012,NM,Crownpoint,GALLUP,36.0958,-108.1444,0.12,0.1659145202999999,35201200021,NN0021016,other_system,[9512]
10129,10129,10129,NY01735,CWNS2012,NY,"NYSDOC, Bedford Hills CF",Bedford Hills,41.2415,-73.68,0.46,0.636005661,36003151002,NY0101885,other_system,"[8999, 9223, 8999, 9223, 9223]"
10145,10145,10145,NY01895,CWNS2012,NY,"Orange, (Co) Home & Infirmary STP",0,41.3906,-74.3398,0.032,0.044243872,36003213001,NY0022101,other_system,[8999]
10438,10438,10438,NY04825,CWNS2012,NY,NYSDOC - Georgetown Corr. Fac.STP,Bedford Hills,42.731,-75.7806,0.03,0.04147863,36007242001,NY0032344,other_system,"[8999, 8999]"
10594,10594,10594,NY06380,CWNS2012,NY,NYS Thruway Authority WWTP,PATTERSONVILLE,42.8903,-74.0799,0.2,0.276524201,36004065100,NY0027391,other_system,[8999]
10598,10598,10598,OH00035,CWNS2012,OH,Arlington WWTP & Sewers,0,40.892,-83.6462,0.17,0.23504557,39000013001,OH0053171,other_system,"[4941, 4941]"
10640,10640,10640,OH00455,CWNS2012,OH,Pleasant Valley RSD Rustic Acres WWTP & Sewers,0,39.3559,-83.0505,0.008,0.011060968,39000068002,OH0050903,other_system,NO_SIC_MATCH
10673,10673,10673,OH00795,CWNS2012,OH,Allen Co American Bath WWTP,0,40.7802,-84.1782,1.24,1.714450043,39000118001,OH0023841,other_system,NO_SIC_MATCH
10688,10688,10688,OH00945,CWNS2012,OH,Mahoning Co Meander Creek WWTP,0,41.1595,-80.7708,2.35,3.249159356,39000144001,OH0045721,other_system,NO_SIC_MATCH
10735,10735,10735,OH01415,CWNS2012,OH,Ansonia WWTP & Sewers,0,40.2135,-84.637,0.16,0.2212193603999999,39000217001,OH0023884,other_system,NO_SIC_MATCH
10813,10813,10813,OH02195,CWNS2012,OH,Loudonville WWTP & Sewer System,0,40.6356,-82.2391,0.485,0.670571186,39000319001,OH0041840,other_system,[4941]
10819,10819,10819,OH02255,CWNS2012,OH,Athens WWTP & Sewer System,0,39.3376,-82.0785,3.187,4.406413134967499,39000329001,OH0023931,other_system,NO_SIC_MATCH
10824,10824,10824,OH02305,CWNS2012,OH,Greenwich WWTP & Sewer System,0,41.0322,-82.5239,0.2,0.276524201,39000338001,OH0020486,other_system,NO_SIC_MATCH
10829,10829,10829,OH02355,CWNS2012,OH,Attica WWTP & Sewers,0,41.064,-82.8878,0.225,0.311089726,39000343001,OH0023957,other_system,NO_SIC_MATCH
10849,10849,10849,OH02555,CWNS2012,OH,Aurora Westerly WWTP & Sewers,0,41.3079,-81.3918,1.0,1.382621003,39000364002,OH0098043,other_system,"[4941, 3589]"
10854,10854,10854,OH02605,CWNS2012,OH,Napoleon WWTP & Sewer System,0,41.3947,-84.1159,1.5,2.073931504,39000370001,OH0020893,other_system,NO_SIC_MATCH
10866,10866,10866,OH02725,CWNS2012,OH,Chickasaw WWTP and Sewers,0,40.4203,-84.491,0.05,0.06913105,39000395001,OH0132691,other_system,NO_SIC_MATCH
10870,10870,10870,OH02765,CWNS2012,OH,Barnesville WWTP & Sewer System,0,39.9705,-81.1641,0.969,1.339759751,39000462001,OH0024015,other_system,NO_SIC_MATCH
10879,10879,10879,OH02855,CWNS2012,OH,Bellevue WWTP & Sewer System,0,41.2806,-82.8708,1.2,1.659145203,39000616001,OH0020672,other_system,NO_SIC_MATCH
10885,10885,10885,OH02915,CWNS2012,OH,Belpre WWTP & Sewer System,0,39.2725,-81.5698,1.5,2.073931504,39000651001,OH0020621,other_system,NO_SIC_MATCH
10888,10888,10888,OH02945,CWNS2012,OH,Bethesda WWTP & Sewer System,0,40.0114,-81.0728,0.143,0.1977148033574999,39000749001,OH0021121,other_system,NO_SIC_MATCH
10910,10910,10910,OH03165,CWNS2012,OH,Cadiz WWTP & Sewer System,0,40.2432,-80.9705,0.466,0.644301387,39001225001,OH0024295,other_system,NO_SIC_MATCH
10925,10925,10925,OH03315,CWNS2012,OH,Carrollton WWTP & Sewer System,0,40.5652,-81.084,0.474,0.655362355,39001379001,OH0020931,other_system,NO_SIC_MATCH
10927,10927,10927,OH03335,CWNS2012,OH,Greene Co Cedarville WWTP and Sewers,0,39.7032,-84.0295,0.4,0.553048401,39001435001,OH0020010,other_system,NO_SIC_MATCH
10929,10929,10929,OH03355,CWNS2012,OH,Chardon WWTP & Sewer System,0,41.5828,-81.191,1.41,1.949495614,39001484001,OH0022659,other_system,NO_SIC_MATCH
10932,10932,10932,OH03385,CWNS2012,OH,Chillicothe WWTP & Sewer System,0,39.3278,-82.9497,2.5,3.456552506,39001575001,OH0024406,other_system,NO_SIC_MATCH
10937,10937,10937,OH03435,CWNS2012,OH,Clermont Co Middle East Fork WWTP,0,39.0861,-84.1839,3.31,4.576475518,39001660001,OH0049387,other_system,NO_SIC_MATCH
10952,10952,10952,OH03585,CWNS2012,OH,Greene Co Clifton WWTP and Sewers,0,39.7888,-83.8207,0.018,0.024887178,39001678001,OH0118567,other_system,"[9199, 9199, 9199]"
10961,10961,10961,OH03675,CWNS2012,OH,Corning WWTP and Sewers,0,39.6024,-82.0862,0.06,0.08295726,39001904001,OH0135097,other_system,NO_SIC_MATCH
10972,10972,10972,OH03785,CWNS2012,OH,Delaware Co Olentangy ECC,0,40.1408,-83.0393,4.422,6.113950073054999,39002141001,OH0054399,other_system,NO_SIC_MATCH
10973,10973,10973,OH03795,CWNS2012,OH,Delaware WWTP & Sewer System,0,40.2921,-83.0611,5.4,7.466153413500001,39002142001,OH0024911,other_system,NO_SIC_MATCH
10974,10974,10974,OH03805,CWNS2012,OH,Delphos WWTP & Sewer System,0,40.8531,-84.3427,2.83,3.912817437,39002156001,OH0024929,other_system,NO_SIC_MATCH
11002,11002,11002,OH04085,CWNS2012,OH,Erie Co Huron Basin WWTP,0,41.3884,-82.5503,0.882,1.2194717242050002,39002587009,OH0020125,other_system,NO_SIC_MATCH
11007,11007,11007,OH04135,CWNS2012,OH,Fayette WWTP & Sewer System,0,41.6826,-84.1931,0.15,0.20739315,39002667001,OH0025127,other_system,NO_SIC_MATCH
11008,11008,11008,OH04145,CWNS2012,OH,Findlay WWTP & Sewer System,0,41.044,-83.6614,14.125,19.52952166,39002702001,OH0025135,other_system,NO_SIC_MATCH
11023,11023,11023,OH04295,CWNS2012,OH,Gallia Co Meadowlook WWTP,0,38.8045,-82.241,0.02,0.02765242,39002925001,OH0050407,other_system,NO_SIC_MATCH
11049,11049,11049,OH04555,CWNS2012,OH,Glendale WWTP & Sewer System,0,39.2712,-84.4485,0.61,0.843398812,39003080001,OH0020141,other_system,NO_SIC_MATCH
11071,11071,11071,OH04775,CWNS2012,OH,Harrod WWTP & Sewer System,0,40.7074,-83.9211,0.06,0.08295726,39003472001,OH0053678,other_system,NO_SIC_MATCH
11075,11075,11075,OH04815,CWNS2012,OH,Hebron WWTP & Sewer System,0,39.9836,-82.4854,0.677,0.936034419,39003542001,OH0021539,other_system,NO_SIC_MATCH
11096,11096,11096,OH05025,CWNS2012,OH,Kenton WWTP & Sewer System,Kenton,40.6359,-83.5992,1.886,2.607623211,39004032001,OH0025925,other_system,NO_SIC_MATCH
11101,11101,11101,OH05075,CWNS2012,OH,Kirtland Shenandoah Estates WWTP,0,41.6175,-81.3572,0.013,0.017974073,39004205001,OH0039004,other_system,NO_SIC_MATCH
11103,11103,11103,OH05095,CWNS2012,OH,Kirtland Rockwood Ledges WWTP,0,41.6175,-81.3572,0.025,0.034565525,39004205003,OH0039080,other_system,NO_SIC_MATCH
11110,11110,11110,OH05165,CWNS2012,OH,Lakewood WWTP & Sewer System,0,41.4791,-81.8249,8.48,11.7246261,39004243001,OH0026018,other_system,NO_SIC_MATCH
11139,11139,11139,OH05455,CWNS2012,OH,Lowell WWTP & Sewer System,0,39.5229,-81.5143,0.09,0.12443589,39004627001,OH0020311,other_system,NO_SIC_MATCH
11141,11141,11141,OH05475,CWNS2012,OH,Lucas WWTP & Sewer System,0,40.7047,-82.4147,0.04,0.05530484,39004648001,OH0021041,other_system,NO_SIC_MATCH
11151,11151,11151,OH05575,CWNS2012,OH,Ottawa Co Danbury Township WWTP,0,41.5181,-82.8222,2.75,3.802207757,39004798002,OH0053660,other_system,NO_SIC_MATCH
11154,11154,11154,OH05605,CWNS2012,OH,Mahoning Co Craig Beach WWTP,0,41.1285,-80.9784,0.286,0.3954296067149999,39004808003,OH0043851,other_system,NO_SIC_MATCH
11166,11166,11166,OH05725,CWNS2012,OH,Mason WWTP & Sewer System,0,39.3762,-84.2838,3.75,5.184828759,39004984001,OH0020494,other_system,NO_SIC_MATCH
11187,11187,11187,OH05935,CWNS2012,OH,Minerva WWTP & Sewer System,0,40.7293,-81.1037,0.7,0.967834702,39005334001,OH0021849,other_system,NO_SIC_MATCH
11192,11192,11192,OH05985,CWNS2012,OH,Moreland Hills Greentree WWTP,0,41.4326,-81.4087,0.011,0.015208831,39005445003,OH0021229,other_system,NO_SIC_MATCH
11205,11205,11205,OH06115,CWNS2012,OH,New Knoxville WWTP & Sewer System,0,40.4875,-84.3122,0.26,0.359481461,39005803001,OH0053635,other_system,NO_SIC_MATCH
11214,11214,11214,OH06205,CWNS2012,OH,Auglaize Co K/Z Sewer District,WAPAKONETA,40.6132,-84.2159,0.01,0.01382621,39005855020,OH0125211,other_system,[6514]
11282,11282,11282,OH06885,CWNS2012,OH,Quaker City WWTP & Sewer System,0,39.9701,-81.3001,0.06,0.08295726,39006874001,OH0021351,other_system,NO_SIC_MATCH
11320,11320,11320,OH07265,CWNS2012,OH,Shawnee WWTP & Sewer System,0,39.6069,-82.2184,0.06,0.08295726,39007617001,OH0127671,other_system,NO_SIC_MATCH
11341,11341,11341,OH07475,CWNS2012,OH,"Strongsville ""B"" WWTP & Sewers",0,41.3507,-81.8216,0.799,1.104714181,39008001002,OH0027570,other_system,NO_SIC_MATCH
11354,11354,11354,OH07605,CWNS2012,OH,Sunbury WWTP & Collection System,0,40.3197,-82.8301,0.854,1.180758336,39008092001,OH0055093,other_system,NO_SIC_MATCH
11370,11370,11370,OH07765,CWNS2012,OH,Trumbull Co Warren #3 WWTP,0,41.247,-80.8986,0.011,0.015208831,39008330009,OH0091651,other_system,NO_SIC_MATCH
11372,11372,11372,OH07785,CWNS2012,OH,Trumbull Co Logan Arms WWTP,0,41.1739,-80.6365,0.04,0.05530484,39008330011,OH0092568,other_system,NO_SIC_MATCH
11374,11374,11374,OH07805,CWNS2012,OH,Trumbull Co Kinsman WWTP,0,41.4372,-80.607,0.01,0.01382621,39008330021,OH0140350,other_system,NO_SIC_MATCH
11379,11379,11379,OH07855,CWNS2012,OH,Union WWTP & Sewer System,0,39.8983,-84.3046,0.571,0.7894765924274999,39008372001,OH0021644,other_system,NO_SIC_MATCH
11392,11392,11392,OH07985,CWNS2012,OH,Warren Co Lower Little Miami WWTP,0,39.3209,-84.2574,7.0,9.678347018,39008637006,OH0071692,other_system,NO_SIC_MATCH
11406,11406,11406,OH08125,CWNS2012,OH,Preble Co Sewer District #3 WWTP,0,39.591,-84.5547,0.02,0.02765242,39008820001,OH0134082,other_system,NO_SIC_MATCH
11451,11451,11451,OH08575,CWNS2012,OH,Troy Township Wastewater District,Nova,41.0399,-82.3259,0.03,0.04147863,39010051101,OH0135585,other_system,NO_SIC_MATCH
11453,11453,11453,OH08595,CWNS2012,OH,Crawford Co Linlare Village,0,40.821,-82.9015,0.01,0.01382621,39010331001,OH0079120,other_system,NO_SIC_MATCH
11454,11454,11454,OH08605,CWNS2012,OH,Crawford Co Morton Subdivision,0,40.8159,-82.9286,0.003,0.004147863,39010331002,OH0132870,other_system,"[8811, 8811, 8811]"
11458,11458,11458,OH09305,CWNS2012,OH,Holmes County Jail & Training Center WWTP,PRAIRIE TWP,40.5534,-81.9174,0.02,0.02765242,39000037005,OH0117781,other_system,"[9223, 9223, 9223]"
11461,11461,11461,OH09320,CWNS2012,OH,Wayne Co Attention Center,WOOSTER,40.7183,-81.9018,0.002,0.002765242,39000194002,OH0083925,other_system,"[8063, 8063]"
11470,11470,11470,OH09365,CWNS2012,OH,Darke Co Stillwater Golf Estates,VERSAILLES,40.1734,-84.461,0.008,0.011060968,39009600006,OH0119067,other_system,NO_SIC_MATCH
11565,11565,11565,OK00935,CWNS2012,OK,GORE WWT,Gore,35.5613,-95.0976,0.06,0.08295726,40000093001,OKG380024,other_system,"[4941, 4941]"
11963,11963,11963,OH08865,ICIS2022,OH,HEATHER HILL CARE COMMUNITIES,CHARDON,41.5363,-81.22501,0.1,0.1382621,0,OH0083984,other_system,"[8051, 8051]"
12234,12234,12234,PA00835,CWNS2012,PA,BRADFORD CO - W BURLINGTON STP,0,41.7773,-76.6255,0.05,0.06913105,42000894701,PA0033502,other_system,"[8361, 8361]"
12390,12390,12390,PA02395,CWNS2012,PA,WHITE HAVEN STP,0,41.0629,-75.7835,0.3,0.414786301,42002096001,PA0020435,other_system,[4939]
12464,12464,12464,PA03135,CWNS2012,PA,GARRETT BORO STP,0,39.8679,-79.0653,0.07,0.09678347,42003033001,PA0098132,other_system,"[4941, 4941]"
12476,12476,12476,PA03255,CWNS2012,PA,SPRING GROVE BORO AUTH,0,39.8711,-76.8684,0.26,0.359481461,42003054001,PA0008869,other_system,"[2621, 2621, 2621, 2621, 782, 2621, 2621, 2621, 2621, 2621]"
12523,12523,12523,PA03725,CWNS2012,PA,EASTERN YORK STP (HELLAM),0,40.0018,-76.5978,0.3,0.414786301,42003144001,PA0081591,other_system,[3469]
12541,12541,12541,PA03905,CWNS2012,PA,SO. MT. REST. CTR. STP,0,39.8576,-77.5008,0.25,0.3456552506249999,42003204002,PA0029297,other_system,"[8063, 8063, 8052, 8063, 8052]"
12558,12558,12558,PA04075,CWNS2012,PA,ST FRANCIS COLLEGE - LORETTO STP,0,40.5189,-78.6338,0.06,0.08295726,42004002001,PA0218367,other_system,"[8221, 4941, 4941]"
12576,12576,12576,PA04255,CWNS2012,PA,WINDBER AREA INGLESIDE STP,0,40.1698,-78.7447,2.9,4.009600907249999,42004032001,PA0026778,other_system,NO_SIC_MATCH
12650,12650,12650,PA04995,CWNS2012,PA,LEWIS TWP NORTHUMBERLAND STP,0,41.1034,-76.8043,0.036,0.049774356,42004280005,PA0111741,other_system,"[8211, 8211, 8211, 8211, 8211]"
12729,12729,12729,PA05785,CWNS2012,PA,DCNR - MORAINE STATE PARK STP,0,40.9402,-80.0985,0.23,0.318002831,42005088002,PA0032531,other_system,"[8412, 8412]"
12759,12759,12759,PA06085,CWNS2012,PA,MARIANNA STP,0,40.0248,-80.0848,0.107,0.147940447,42005168001,PA0096229,other_system,NO_SIC_MATCH
12780,12780,12780,PA06295,CWNS2012,PA,KOPPEL BORO STP,0,40.8342,-80.325,0.15,0.20739315,42005227001,PA0023434,other_system,"[2211, 2211, 2211]"
12784,12784,12784,PA06335,CWNS2012,PA,MOON TWP MA - MONTOUR RUN STP,0,40.4915,-80.1509,1.75,2.419586754,42005242002,PA0028801,other_system,NO_SIC_MATCH
12867,12867,12867,PA07165,CWNS2012,PA,SLIGO BORO AUTH STP,0,41.1153,-79.4981,0.11,0.15208831,42006075001,PA0221643,other_system,NO_SIC_MATCH
12946,12946,12946,PA07955,CWNS2012,PA,PA DEPT OF CORRECTIONS-GRATERFORD,0,40.2332,-75.4352,0.85,1.175227852,42007001001,PA0054186,other_system,"[9223, 9223]"
12947,12947,12947,PA07965,CWNS2012,PA,DCNR PROMISED LAND STATE PK STP,0,41.3184,-75.2407,0.15,0.20739315,42007002002,PA0032123,other_system,"[8412, 8412]"
12948,12948,12948,PA07975,CWNS2012,PA,DCNR - SHAWNEE STATE PARK STP,0,40.0343,-78.6357,0.04,0.05530484,42007002004,PA0032093,other_system,"[7999, 7999]"
12951,12951,12951,PA08005,CWNS2012,PA,PA CLARKS SUMMIT STATE HOSPITAL,0,41.4823,-75.7382,0.14,0.19356694,42007003004,PA0029432,other_system,"[8063, 8063, 8063, 8063]"
12952,12952,12952,PA08015,CWNS2012,PA,DCNR LITTLE BUFFALO STATE PK STP,0,40.462,-77.1698,0.012,0.016591452,42007300001,PA0031950,other_system,"[7999, 8412, 8412, 7999]"
12953,12953,12953,PA08025,CWNS2012,PA,DCNR PINCHOT STATE PK STP,0,40.0871,-76.8885,0.1,0.1382621,42007306001,PA0032000,other_system,"[8412, 4911, 8412, 4911, 8412]"
13019,13019,13019,PA08685,CWNS2012,PA,WEST ST CLAIR-PLEASANTVILLE STP,0,40.1606,-78.5936,0.01,0.01382621,42007587001,PA0088960,other_system,[4941]
13044,13044,13044,PA08925,CWNS2012,PA,DCNR DENTON HILL ST PK STP,COUDERSPORT,41.7784,-77.8275,0.01,0.01382621,42006130001,PA0032514,other_system,[8412]
13046,13046,13046,PA08935,CWNS2012,PA,BELTZVILLE STATE PARK,LEHIGHTON,40.8652,-75.6279,0.01,0.01382621,42007101001,PA0032107,other_system,"[8412, 8412]"
13047,13047,13047,PA08940,CWNS2012,PA,SOMERSET CORRECTIONAL FAC. STP,SOMERSET,40.0021,-79.0372,0.16,0.2212193603999999,42007400001,PA0030406,other_system,"[9223, 9223, 9223, 9223]"
13048,13048,13048,PA08945,CWNS2012,PA,DCNR - PRINCE GALLITZIN ST PARK STP,PATTON,40.6515,-78.5507,0.1,0.1382621,42007402001,PA0032085,other_system,"[8412, 8412]"
13049,13049,13049,PA08950,CWNS2012,PA,GREENWOOD FURN. STATE PARK STP,HUNTINGDON,40.6448,-77.7669,0.48,0.6636580811999999,42007409001,PA0031992,other_system,"[8412, 8412]"
13118,13118,13118,RI00175,CWNS2012,RI,ZAMBARANO HOSPITAL,0,41.9971,-71.7617,0.06,0.08295726,44000034001,RI0100129,other_system,"[8062, 8062, 8062]"
13207,13207,13207,SC00845,CWNS2008,SC,Union/Meng Creek Plant,0,34.7228,-81.5025,0.93,1.285837532,45000235001,SC0047236,other_system,NO_SIC_MATCH
13459,13459,13459,TN00175,CWNS2012,TN,Blaine Wastewater System,Blaine,36.1596,-83.8262,0.1,0.1382621,47000142001,TN0074080,other_system,[4941]
13506,13506,13506,TN00645,CWNS2012,TN,Elkton Wastewater System,Elkton,35.0504,-86.8694,0.005,0.006913105,47000450001,TN0076007,other_system,"[8211, 8211]"
13809,13809,13809,TX01035,CWNS2012,TX,Rancho Viejo WWTP,CAMERON COUNTY,26.0428,-97.5556,0.19,0.26269799,48001166001,TX0117731,other_system,"[4941, 4941]"
13976,13976,13976,TX02685,CWNS2012,TX,Par Village WWTP,0,31.9362,-98.5052,0.008,0.011060968,48003167001,TX0122203,other_system,[4941]
14362,14362,14362,TX06350,ICIS2022,TX,CITY OF DALLAS ELM FORK WTP,CARROLLTON,32.972222,-96.916388,5.0,6.913105013,0,TX0002372,other_system,"[4941, 4941]"
14495,14495,14495,TX07220,ICIS2022,TX,FISHING HARBOR WWTP,BROWNSVILLE,25.981388,-97.3375,0.25,0.3456552506249999,0,TX0100242,other_system,"[4491, 4491]"
14581,14581,14581,TX07670,ICIS2022,TX,HOMER N TANNER JR REGIONAL WTP,AVINGER,32.863611,94.662222,0.0,0.0,0,TX0134490,other_system,"[4941, 4941]"
14614,14614,14614,TX07940,ICIS2022,TX,MEXIA STATE SUPPORTED LIVING CENTER WWTP,MEXIA,31.695,-96.531944,0.45,0.6221794511250001,0,TX0030775,other_system,"[8063, 8063]"
14703,14703,14703,TX08570,ICIS2022,TX,TDCJ CLEMENS UNIT  WWTP,BRAZORIA,28.992676,-95.515858,0.54,0.7466153413500001,0,TX0031569,other_system,"[9223, 9223, 9223, 9223, 213]"
14705,14705,14705,TX08580,ICIS2022,TX,TDCJ ELLIS UNIT WWTP,HUNTSVILLE,30.8875,95.449722,0.85,1.175227852,0,TX0031607,other_system,"[213, 213, 9223, 9223, 213, 252, 9223]"
14706,14706,14706,TX08585,ICIS2022,TX,TDCJ ESTELLE UNIT ,HUNTSVILLE,30.876944,95.483889,1.5,2.073931504,0,TX0092789,other_system,"[9223, 9223]"
14708,14708,14708,TX08595,ICIS2022,TX,TDCJ JESTER 3 UNIT WWTP,FORT BEND COUNTY,29.621744,-95.711459,0.75,1.036965752,0,TX0089036,other_system,"[9223, 9223]"
14710,14710,14710,TX08605,ICIS2022,TX,TDCJ LUTHER  UNIT WWTP,COURTNEY,30.261514,-96.057329,0.38,0.525395981,0,TX0089028,other_system,"[9223, 9223]"
14711,14711,14711,TX08610,ICIS2022,TX,TDCJ POWLEDGE UNIT  WWTF,ANDERSON COUNTY,31.729444,-95.802777,0.35,0.4839173508749999,0,TX0089044,other_system,"[9223, 9223]"
14714,14714,14714,TX08625,ICIS2022,TX,TDJC COFFIELD UNIT,ANDERSON COUNTY,31.788611,95.937222,2.85,3.940469857,0,TX0031577,other_system,"[213, 9223, 213, 9223]"
14715,14715,14715,TX08630,ICIS2022,TX,TERRELL UNIT WWTP,BRAZORIA COUNTY,29.297777,-95.541666,2.0,2.765242005,0,TX0115169,other_system,"[9223, 9223]"
14721,14721,14721,TX08660,ICIS2022,TX,TOLEDO BEND DAM,BURKEVILLE,31.173397,-93.565634,1.2,1.659145203,0,TX0130109,other_system,"[4911, 4911]"
14748,14748,14748,TX08870,ICIS2022,TX,WILBARGER CREEK REGIONAL WWTF,PFLUGERVILLE,30.386388,-97.543333,2.0,2.765242005,0,TX0132179,other_system,NO_SIC_MATCH
14872,14872,14872,UT01095,CWNS2012,UT,JORDANELLE SSD,HEBER CITY,40.6342,-111.4369,0.14,0.19356694,49000337001,UT0022403,other_system,"[4941, 4941, 1031, 1031]"
15135,15135,15135,VT00005,CWNS2012,VT,ALBURG WPCF,Alburg,44.9652,-73.2987,0.092,0.127201132,50000002001,VT0100005,other_system,NO_SIC_MATCH
15136,15136,15136,VT00015,CWNS2012,VT,BARRE CITY WPCF,BARRE,44.21,-72.52,2.74,3.788381547,50000004001,VT0100889,other_system,NO_SIC_MATCH
15137,15137,15137,VT00025,CWNS2012,VT,BARTON W.P.C. F.,Barton,44.7333,-72.1667,0.17,0.23504557,50000006001,VT0100641,other_system,NO_SIC_MATCH
15138,15138,15138,VT00035,CWNS2012,VT,BELLOWS FALLS WPCF,Bellow Falls,43.1295,-72.4432,0.566,0.7825634874149999,50000007001,VT0100013,other_system,NO_SIC_MATCH
15139,15139,15139,VT00045,CWNS2012,VT,BENNINGTON WPCF,Bennington,42.915,-73.2569,3.46,4.783868669,50000008001,VT0100021,other_system,"[9511, 9511]"
15140,15140,15140,VT00055,CWNS2012,VT,Benson Town,Benson,43.7084,-73.3107,0.007,0.009678347,50000009001,VT0100498,other_system,NO_SIC_MATCH
15141,15141,15141,VT00065,CWNS2012,VT,BETHEL WPCF,Bethel,43.8246,-72.6164,0.065,0.089870365,50000011001,VT0100048,other_system,NO_SIC_MATCH
15142,15142,15142,VT00075,CWNS2012,VT,BRADFORD WPCP,BRADFORD,43.9994,-72.1176,0.11,0.15208831,50000012001,VT0100803,other_system,NO_SIC_MATCH
15143,15143,15143,VT00085,CWNS2012,VT,Town of Waterbury,Waterbury,44.3501,-72.7496,0.279,0.38575126,50000012008,VT0100463,other_system,NO_SIC_MATCH
15145,15145,15145,VT00105,CWNS2012,VT,BRATTLEBORO STP,BRATTLEBORO,42.841,-72.5492,1.681,2.324185905,50000013001,VT0100064,other_system,NO_SIC_MATCH
15146,15146,15146,VT00115,CWNS2012,VT,BRIGHTON WATER PCF,ISLAND POND,44.8,-71.8916,0.077,0.106461817,50000015001,VT0100072,other_system,NO_SIC_MATCH
15147,15147,15147,VT00125,CWNS2012,VT,BURLINGTON MAIN STP,Burlington,44.4727,-73.2191,4.77,6.595102181924999,50000016001,VT0100153,other_system,NO_SIC_MATCH
15148,15148,15148,VT00135,CWNS2012,VT,BURLINGTON NO END STP,Burlington,44.5279,-73.2688,1.17,1.617666573,50000016002,VT0100226,other_system,NO_SIC_MATCH
15149,15149,15149,VT00145,CWNS2012,VT,BURLINGTON EAST STP,Burlington,44.4869,-73.1936,0.723,0.999634985,50000016003,VT0100307,other_system,NO_SIC_MATCH
15150,15150,15150,VT00155,CWNS2012,VT,CASTLETON WPCF,Castleton,43.6041,-73.2095,0.321,0.443821342,50000018001,VT0100897,other_system,NO_SIC_MATCH
15151,15151,15151,VT00165,CWNS2012,VT,CAVENDISH W P C F,Cavendish,43.3866,-72.6015,0.075,0.103696575,50000019001,VT0100862,other_system,NO_SIC_MATCH
15152,15152,15152,VT00175,CWNS2012,VT,DANVILLE WPCF,Danville,44.4117,-72.1417,0.03,0.04147863,50000021001,VT0100633,other_system,NO_SIC_MATCH
15153,15153,15153,VT00185,CWNS2012,VT,ESSEX JCT VIL WPCF,Essex Jct,44.4811,-73.1217,1.84,2.544022645,50000025001,VT0100111,other_system,NO_SIC_MATCH
15154,15154,15154,VT00195,CWNS2012,VT,FAIRFAX W P C F,Fairfax,44.6633,-73.0189,0.04,0.05530484,50000027001,VT0101087,other_system,NO_SIC_MATCH
15155,15155,15155,VT00205,CWNS2012,VT,FAIRHAVEN WT,Fair Haven,43.5925,-73.2791,0.215,0.297263516,50000029001,VT0100129,other_system,NO_SIC_MATCH
15156,15156,15156,VT00215,CWNS2012,VT,HARDWICK WPCF,Hardwick,44.5153,-72.3762,0.213,0.2944982735324999,50000031001,VT0100137,other_system,NO_SIC_MATCH
15157,15157,15157,VT00225,CWNS2012,VT,WHITE RIVER JUNCTION WWTF,0,43.6464,-72.3147,1.02,1.410273423,50000032001,VT0101010,other_system,NO_SIC_MATCH
15158,15158,15158,VT00235,CWNS2012,VT,QUECHEE WPC,White River Jct.,43.6444,-72.4142,0.202,0.279289443,50000032003,VT0100978,other_system,NO_SIC_MATCH
15159,15159,15159,VT00245,CWNS2012,VT,HINESBURG WPCF,Hinesburg,44.3322,-73.1262,0.243,0.335976904,50000033001,VT0101028,other_system,NO_SIC_MATCH
15160,15160,15160,VT00255,CWNS2012,VT,JOHNSON WPC,Johnson,44.6807,-72.7367,0.149,0.206010529,50000036001,VT0100901,other_system,NO_SIC_MATCH
15161,15161,15161,VT00265,CWNS2012,VT,LUDLOW WWTF,Ludlow,43.3923,-72.6793,0.35,0.4839173508749999,50000037001,VT0100145,other_system,NO_SIC_MATCH
15162,15162,15162,VT00275,CWNS2012,VT,LYNDON STP,Lyndon,44.525,-72.0167,0.295,0.4078731957374999,50000038001,VT0100595,other_system,NO_SIC_MATCH
15163,15163,15163,VT00285,CWNS2012,VT,MANCHESTER WASTEWATER TRE,Manchester,43.1667,-73.0662,0.298,0.412021059,50000039001,VT0100170,other_system,NO_SIC_MATCH
15164,15164,15164,VT00295,CWNS2012,VT,MARSHFIELD W P C,Marshfield,44.3483,-72.3543,0.02,0.02765242,50000040001,VT0100471,other_system,NO_SIC_MATCH
15165,15165,15165,VT00305,CWNS2012,VT,Middlebury WPCF,Middlebury,44.0415,-73.1742,1.048,1.448986811,50000041001,VT0100188,other_system,NO_SIC_MATCH
15167,15167,15167,VT00325,CWNS2012,VT,MILTON W P C,Milton,44.6312,-73.1243,0.284,0.392664365,50000042001,VT0100684,other_system,NO_SIC_MATCH
15169,15169,15169,VT00345,CWNS2012,VT,MORRISVILLE VIL WPCF,Morrisville,44.5667,-72.625,0.354,0.4894478348849999,50000044001,VT0100480,other_system,NO_SIC_MATCH
15170,15170,15170,VT00355,CWNS2012,VT,NEWPORT WPCF,NEWPORT,44.94,-72.1995,0.86,1.189054062,50000045001,VT0100200,other_system,NO_SIC_MATCH
15171,15171,15171,VT00365,CWNS2012,VT,NEWPORT WWTP,0,44.94,-72.1995,0.011,0.015208831,50000046001,VT0100200,other_system,NO_SIC_MATCH
15172,15172,15172,VT00375,CWNS2012,VT,NORTHFIELD WCF,Northfield,44.1631,-72.6572,0.6,0.829572602,50000047001,VT0100242,other_system,NO_SIC_MATCH
15173,15173,15173,VT00385,CWNS2012,VT,N TROY WPCF,North Troy,44.994,-72.3978,0.091,0.1258185112274999,50000048001,VT0100234,other_system,NO_SIC_MATCH
15174,15174,15174,VT00395,CWNS2012,VT,ORLEANS VILLAGE WPCF,Orleans,44.8083,-72.2,0.084,0.116140164,50000049001,VT0100251,other_system,NO_SIC_MATCH
15175,15175,15175,VT00405,CWNS2012,VT,ORWELL W P C F,Orwell,43.8167,-73.3167,0.021,0.029035041,50000050001,VT0100676,other_system,NO_SIC_MATCH
15176,15176,15176,VT00415,CWNS2012,VT,WEST PAWLET WPCF,Town of Pawlet,,,0.016,0.022121936,50000051001,VT0101192,other_system,NO_SIC_MATCH
15177,15177,15177,VT00425,CWNS2012,VT,PITTSFORD WT,Pittsford,43.7038,-73.0181,0.068,0.094018228,50000052001,VT0100692,other_system,NO_SIC_MATCH
15178,15178,15178,VT00435,CWNS2012,VT,PLAINFIELD WWTF,Plainfield,44.3,-72.4,0.057,0.078809397,50000053001,VT0100781,other_system,NO_SIC_MATCH
15179,15179,15179,VT00445,CWNS2012,VT,POULTNEY WTF,Poultney,43.5253,-73.2453,0.26,0.359481461,50000054001,VT0100269,other_system,NO_SIC_MATCH
15180,15180,15180,VT00455,CWNS2012,VT,PROCTOR WTF,Proctor,43.6627,-73.0305,0.257,0.355333598,50000055001,VT0100528,other_system,NO_SIC_MATCH
15181,15181,15181,VT00465,CWNS2012,VT,PUTNEY WPCF,PUTNEY,42.9709,-72.5193,0.063,0.087105123,50000056001,VT0100277,other_system,NO_SIC_MATCH
15182,15182,15182,VT00475,CWNS2012,VT,READSBORO WPC,Readsboro,42.7642,-72.9469,0.04,0.05530484,50000057001,VT0100731,other_system,NO_SIC_MATCH
15183,15183,15183,VT00485,CWNS2012,VT,RICHMOND WPCF,Richmond,44.4,-73.0167,0.097,0.134114237,50000059001,VT0100617,other_system,NO_SIC_MATCH
15184,15184,15184,VT00495,CWNS2012,VT,ROYALTON WTF,SOUTH ROYALTON,43.8018,-72.5059,0.056,0.077426776,50000060001,VT0100854,other_system,NO_SIC_MATCH
15185,15185,15185,VT00505,CWNS2012,VT,RUTLAND WPCF,RUTLAND,43.6039,-72.9936,5.7,7.880939714,50000061001,VT0100871,other_system,NO_SIC_MATCH
15186,15186,15186,VT00515,CWNS2012,VT,RYEGATE STP,0,44.2001,-72.0648,0.007,0.009678347,50000062001,VT0100951,other_system,NO_SIC_MATCH
15187,15187,15187,VT00525,CWNS2012,VT,ST ALBANS WPCF,St. Albans,44.8298,-73.0864,2.8,3.871338807,50000063001,VT0100323,other_system,NO_SIC_MATCH
15188,15188,15188,VT00535,CWNS2012,VT,ST JOHNSBURY STP,"St. Johnsbury,",44.4106,-72.0166,1.187,1.64117113,50000064001,VT0100579,other_system,NO_SIC_MATCH
15189,15189,15189,VT00545,CWNS2012,VT,SAXTONS RIVER WPCF,Saxtons River,43.1378,-72.5065,0.053,0.073278913,50000065001,VT0100609,other_system,NO_SIC_MATCH
15190,15190,15190,VT00555,CWNS2012,VT,SHELDON W P C F,Sheldon,44.9065,-72.979,0.035,0.048391735,50000066001,VT0100340,other_system,NO_SIC_MATCH
15191,15191,15191,VT00565,CWNS2012,VT,SHELBURNE FD#1 WPCF,Shelburne,44.4057,-73.219,0.338,0.467325899,50000067001,VT0100331,other_system,NO_SIC_MATCH
15192,15192,15192,VT00575,CWNS2012,VT,SHELBURNE FD2 WPCF,Shelburne,44.3826,-73.2361,0.425,0.587613926,50000068001,VT0100820,other_system,NO_SIC_MATCH
15193,15193,15193,VT00585,CWNS2012,VT,SHERBURNE WPCF,Killington,,,0.109,0.150705689,50000069001,VT0101141,other_system,NO_SIC_MATCH
15194,15194,15194,VT00595,CWNS2012,VT,S BURLINGTON ARPT PKWY WP,South Burlington,44.4793,-73.1701,1.38,1.908016983,50000070001,VT0100366,other_system,NO_SIC_MATCH
15195,15195,15195,VT00605,CWNS2012,VT,BARTLETT BAY STP,South Burlington,44.4282,-73.2147,0.59,0.8157463914749999,50000070002,VT0100358,other_system,NO_SIC_MATCH
15196,15196,15196,VT00615,CWNS2012,VT,SPRINGFIELD WPCF,Springfield,43.2803,-72.4694,1.267,1.7517808101674996,50000072001,VT0100374,other_system,NO_SIC_MATCH
15197,15197,15197,VT00625,CWNS2012,VT,STOWE WPCF,Stowe,44.4634,-72.6879,0.317,0.438290858,50000074001,VT0100455,other_system,NO_SIC_MATCH
15198,15198,15198,VT00635,CWNS2012,VT,SWANTON WPCF,Swanton,44.9256,-73.1343,0.54,0.7466153413500001,50000075001,VT0100501,other_system,NO_SIC_MATCH
15199,15199,15199,VT00645,CWNS2012,VT,TROY WPC,Jay,44.9429,-72.4049,0.07,0.09678347,50000077001,VT0101168,other_system,NO_SIC_MATCH
15200,15200,15200,VT00655,CWNS2012,VT,VERGENNES WWTF,Vergennes,44.15,-73.3083,0.57,0.7880939714249999,50000079001,VT0100404,other_system,NO_SIC_MATCH
15201,15201,15201,VT00665,CWNS2012,VT,WEST RUTLAND WPCF,WEST RUTLAND,43.5903,-73.0386,0.191,0.264080611,50000083001,VT0100714,other_system,NO_SIC_MATCH
15204,15204,15204,VT00695,CWNS2012,VT,WILLIAMSTOWN W P C F,WILLIAMSTOWN,44.1222,-72.5667,0.082,0.113374922,50000085001,VT0100722,other_system,NO_SIC_MATCH
15205,15205,15205,VT00705,CWNS2012,VT,WILMINGTON PCF,WILMINGTON,42.8667,-72.875,0.095,0.131348995,50000087001,VT0100706,other_system,NO_SIC_MATCH
15206,15206,15206,VT00715,CWNS2012,VT,WINDSOR MAIN WPC,Windsor,43.4722,-72.3885,0.469,0.6484492501724999,50000088001,VT0100919,other_system,NO_SIC_MATCH
15207,15207,15207,VT00725,CWNS2012,VT,WINDSOR WESTON HEIGHTS,Windsor,43.4833,-72.3933,0.01,0.01382621,50000088002,VT0100447,other_system,NO_SIC_MATCH
15208,15208,15208,VT00735,CWNS2012,VT,WINOOSKI WPCF,Winooski,44.4908,-73.1977,0.8,1.106096802,50000089001,VT0100510,other_system,NO_SIC_MATCH
15209,15209,15209,VT00745,CWNS2012,VT,SOUTH WOODSTOCK WWTF,Woodstock,43.6667,-72.5,0.03,0.04147863,50000090002,VT0100749,other_system,NO_SIC_MATCH
15210,15210,15210,VT00755,CWNS2012,VT,TAFTSVILLE STP,Woodstock,43.625,-72.4667,0.013,0.017974073,50000090003,VT0100765,other_system,NO_SIC_MATCH
15212,15212,15212,VT00775,CWNS2012,VT,BRANDON WWTF,Brandon,43.7898,-73.0907,0.331,0.457647552,50000096001,VT0100056,other_system,NO_SIC_MATCH
15213,15213,15213,VT00785,CWNS2012,VT,LUNENBURG WWTF,Gilman,44.4124,-71.7185,0.06,0.08295726,50000098001,VT0101061,other_system,NO_SIC_MATCH
15214,15214,15214,VT00795,CWNS2012,VT,CHESTER WWTF,Chester,43.2602,-72.5831,0.121,0.167297141,50000102001,VT0100081,other_system,NO_SIC_MATCH
15215,15215,15215,VT00805,CWNS2012,VT,BRIDGEWATER WWTP,Bridgewater,,,0.02,0.02765242,50000103001,VT0100846,other_system,NO_SIC_MATCH
15216,15216,15216,VT00815,CWNS2012,VT,RANDOLPH WPCF,Randolph,43.9333,-72.65,0.227,0.313854968,50000105001,VT0100285,other_system,NO_SIC_MATCH
15217,15217,15217,VT00825,CWNS2012,VT,CANAAN WWTP,Canaan,44.9883,-71.5398,0.148,0.2046279083699999,50000106001,VT0100625,other_system,NO_SIC_MATCH
15219,15219,15219,VT00845,CWNS2012,VT,CABOT COLLECTION/TREAT.,Cabot,44.391,-72.3209,0.025,0.034565525,50000113001,VT0101257,other_system,NO_SIC_MATCH
15239,15239,15239,WA00145,CWNS2012,WA,CARNATION TREATMENT,Carnation,47.6478,-121.9179,0.48,0.6636580811999999,53000155001,WA0032182,other_system,NO_SIC_MATCH
15241,15241,15241,WA00165,CWNS2012,WA,CHEHALIS STP,Chehalis,46.6669,-122.9811,1.3,1.797407303,53000190001,WA0021105,other_system,NO_SIC_MATCH
15287,15287,15287,WA00625,CWNS2012,WA,LAKE STEVENS STP,Everett,48.0011,-122.1357,2.76,3.816033967,53000664001,WA0020893,other_system,NO_SIC_MATCH
15335,15335,15335,WA01105,CWNS2012,WA,QUINCY INDUSTRIAL STP,Quincy,47.2184,-119.8881,2.1,2.903504105,53001040002,WA0021067,other_system,[2037]
15557,15557,15557,WI00775,CWNS2012,WI,Bluffview Sanitary District - STP,"SUMPTER, TOWN OF",43.4623,-89.7476,0.055,0.076044155,55000650001,WI0043974,other_system,[2892]
15569,15569,15569,WI00895,CWNS2012,WI,NELSON - STP,NELSON,44.4165,-92.004,0.048,0.066365808,55000740080,WI0029459,other_system,NO_SIC_MATCH
15574,15574,15574,WI00945,CWNS2012,WI,Menominee Tribe - STP,0,44.9953,-88.8269,0.105,0.145175205,55000800000,WI0064793,other_system,NO_SIC_MATCH
15665,15665,15665,WI01845,CWNS2012,WI,FREDERIC STP,0,45.6534,-92.4659,0.1,0.1382621,55001800001,WI0029254,other_system,NO_SIC_MATCH
15830,15830,15830,WI03495,CWNS2012,WI,PEPIN WWTP,Pepin,44.4382,-92.1426,0.07,0.09678347,55003710001,WI0022811,other_system,NO_SIC_MATCH
15850,15850,15850,WI03695,CWNS2012,WI,SAUK PRAIRIE SC - STP,0,43.2811,-89.7239,0.61,0.843398812,55003900001,WI0060534,other_system,NO_SIC_MATCH
16046,16046,16046,WI05655,CWNS2012,WI,KELLY LAKE SD #1 - STP,0,45.0189,-88.2354,0.09,0.12443589,55009712001,WI0060224,other_system,NO_SIC_MATCH
16062,16062,16062,WI05815,CWNS2012,WI,Johnsonville Foods WWTP,Sheboygan Falls,43.7659,-87.9063,0.224,0.309707105,55009806002,WI0001759,other_system,"[2013, 2013, 2013, 2011, 2013]"
16108,16108,16108,WV00055,CWNS2012,WV,BERK CO PSSD - TOMAHAWK WWTP,MARTINSBURG,39.5514,-78.02,0.005,0.006913105,54000203001,WVG551078,other_system,NO_SIC_MATCH
16124,16124,16124,WV00215,CWNS2012,WV,BERK CO PSSD - AUSTIN WWTP,MARTINSBURG,39.4603,-77.9194,0.003,0.004147863,54000215001,WVG550858,other_system,"[6515, 6515]"
16126,16126,16126,WV00235,CWNS2012,WV,BERK CO PSSD - CORNERS AT ARDEN TP,MARTINSBURG,39.4047,-78.0792,0.003,0.004147863,54000217001,WVG550966,other_system,NO_SIC_MATCH
16203,16203,16203,WV01005,CWNS2012,WV,CHARLES TOWN - WILLOW SPRING WWTP,CHARLES TOWN,39.2898,-77.838,0.074,0.1023139541849999,54001903001,WV0086452,other_system,[6512]
16255,16255,16255,WV01525,CWNS2012,WV,BLUEWELL PSD WWTP,BLUEFIELD,37.3019,-81.2517,0.4,0.553048401,54002704001,WVG640100,other_system,[4941]
16260,16260,16260,WV01575,CWNS2012,WV,CAMP CREEK AREA WWTP,CHARLESTON,37.4786,-81.07,0.045,0.062217945,54002793002,WV0089851,other_system,[7299]
16292,16292,16292,WV01895,CWNS2012,WV,CASS WWTP,CHARLESTON,38.3918,-79.9206,0.06,0.08295726,54003801001,WV0082210,other_system,[7032]
16334,16334,16334,WV02315,CWNS2012,WV,HARMAN WWTP,HARMAN,38.9234,-79.5244,0.04,0.05530484,54004203001,WVG551412,other_system,NO_SIC_MATCH
16339,16339,16339,WV02365,CWNS2012,WV,ELLENBORO/LAMBERTON PSD WWTP,PENNSBORO,39.2849,-80.968,0.07,0.09678347,54004308001,WV0027308,other_system,"[6512, 6512]"
16386,16386,16386,WV02850,CWNS2012,WV,STONEWALL JACKSON LAKE SP WWTP,WALKERSVILLE,38.9438,-80.4918,0.1,0.1382621,54002107001,WV0101257,other_system,"[7032, 1629]"
16387,16387,16387,WV02855,CWNS2012,WV,PCPSD - SNOWSHOE VALLEY WWTP,SNOWSHOE,38.4016,-79.9949,0.1,0.1382621,54003880202,WV0023311,other_system,"[7011, 7032, 7032, 7011]"
16388,16388,16388,WV02860,CWNS2012,WV,PCPSD - INN AT SNOWSHOE WWTP,SNOWSHOE,38.4016,-79.9949,0.015,0.020739315,54003880203,WVG550692,other_system,"[7011, 7032, 7032, 7011]"
16389,16389,16389,WV02865,CWNS2012,WV,PCPSD - SILVER CREEK WWTP,SNOWSHOE,38.4451,-79.9781,0.03,0.04147863,54003880204,WV0082937,other_system,[7032]
16393,16393,16393,WY00025,CWNS2012,WY,ROCK SPRINGS WWTP,ROCK SPRINGS,41.5671,-109.2748,2.35,3.249159356,56000003002,WY0022357,other_system,NO_SIC_MATCH
16469,16469,16469,WY00785,CWNS2012,WY,JACKSON LAGOON,Jackson,43.4689,-110.8026,2.0,2.765242005,56000093001,WY0021458,other_system,NO_SIC_MATCH
