,Unnamed: 0,FACILITY_CODE,SOURCE,STATE,FACILITY,CITY,LATITUDE,LONGITUDE,FLOW_2012_MGD,2012_TOT_ANNUAL_MM3,CWNS_NUM,NPDES_ID
313,320,AL02900,ICIS2022,AL,ADDISON LAGOON & SPRAYFIELD,ADDISON,34.2,-87.166667,52.0,71.89629213,0,AL0075621
314,321,AL02905,ICIS2022,AL,ALABAMA DEPARTMENT OF CONSERVATION LAKEPOINT STATE PARK,EUFAULA,31.992222,-85.099722,0.15,0.20739315,0,AL0023906
315,322,AL03005,ICIS2022,AL,DELWOOD HCR LAGOON,ORRVILLE,32.274631,-87.273478,0.263,0.363629324,0,AL0048151
316,323,AL03035,ICIS2022,AL,GREENETRACK WWT LAGOON,EUTAW,32.908472,-87.861306,0.489,0.67610167,0,AL0074993
678,702,AL03080,ICIS2022,AL,JOE WHEELER STATE PARK AND ROGERSVILLE LAGOON,ROGERSVILLE,34.805,-87.3307,0.261,0.360864082,0,AL0032387
679,703,AL03100,ICIS2022,AL,LEXINGTON LAGOON AND SPRAYFIELD,LEXINGTON,34.961667,-87.354111,0.187,0.258550127,0,AL0072834
682,706,AL03130,ICIS2022,AL,MALLARD FOX WEST WWTP,TRINITY,34.614444,-87.109722,0.102,0.141027342,0,AL0076708
700,768,AL03135,ICIS2022,AL,MEADOWBROOK HCR LAGOON,CAMDEN,31.967478,-87.209906,0.33,0.456264931,0,AL0079081
732,866,AL03140,ICIS2022,AL,MILLER CREEK WWTP,MOBILE,31.083056,-88.245833,0.15,0.20739315,0,AL0081299
733,867,AL03145,ICIS2022,AL,MILLEY'S CREEK WPCP,PIKE ROAD,32.387075,-86.043642,0.0,0.0,0,AL0082431
734,868,AL03215,ICIS2022,AL,POARCH CREEK WWTP,ATMORE,31.133333,-87.529167,0.18,0.24887178,0,AL0079880
735,869,AL03240,ICIS2022,AL,ROLLING HILLS WASTEWATER LAGOON,MONTGOMERY,32.242817,-86.169719,0.8,1.106096802,0,AL0059315
736,870,AL03250,ICIS2022,AL,SEARCY HOSPITAL LAGOON,MOUNT VERNON,31.0802,-88.0219,0.2,0.276524201,0,AL0056928
737,871,AR03905,ICIS2022,AR,"BIGELOW, CITY OF",BIGELOW,35.001917,-92.614889,0.1,0.1382621,0,AR0049999
738,872,AR03920,ICIS2022,AR,CONCORD WATER AND SEWER WASTEWATER TREATMENT PLANT,VAN BUREN,35.451,-94.299778,0.15,0.20739315,0,AR0050938
807,978,AR04020,ICIS2022,AR,SOUTHSIDE PUBLIC WATER AUTHORITY - WASTEWATER TREATMENT PLANT,INDEPENDENCE COUNTY,35.683722,-91.622722,0.14,0.19356694,0,AR0050784
970,1370,AZ01570,ICIS2022,AZ,CHINLE WWTF,CHINLE,36.179194,-109.585806,0.45,0.622179451,0,NN0020265
971,1371,AZ01585,ICIS2022,AZ,HON-DAH REGIONAL WWTF,WHITERIVER,34.063656,-109.924548,0.4,0.553048401,0,AZ0024589
972,1372,AZ01590,ICIS2022,AZ,KAYENTA WASTEWATER TREATMENT LAGOON,KAYENTA,36.733111,-110.230611,0.27,0.373307671,0,NN0020281
973,1373,AZ01600,ICIS2022,AZ,TUBA CITY WWTF,TUBA CITY,36.091389,-111.288889,0.462,0.638770903,0,NN0020290
974,1374,AZ01610,ICIS2022,AZ,UPPER VILLAGE OF MOENKOPI WWTF,TUBA CITY,36.108333,-111.233611,0.185,0.255784885,0,AZ0024619
975,1375,AZ01615,ICIS2022,AZ,WHITERIVER SEWAGE LAGOONS,WHITERIVER,33.837031,-109.964,0.6,0.829572602,0,AZ0024058
976,1376,AZ01620,ICIS2022,AZ,WINDOW ROCK WWTF,FORT DEFIANCE,35.639444,-109.080278,0.326,0.450734447,0,NN0021555
978,1378,CA04960,ICIS2022,CA,CENTINELA STATE PRISON WWTP,IMPERIAL,32.792028,-115.774306,0.96,1.327316162,0,CA7000001
1190,1665,CA04985,ICIS2022,CA,FOREST MEADOWS WWRP,MURPHYS,38.161354,-120.417311,0.84,1.161401642,0,CA0085278
1192,1667,CA05000,ICIS2022,CA,HAYWARD MARSH,HAYWARD,37.649694,-122.142667,3.09,4.272298898,0,CA0038636
1193,1668,CA05010,ICIS2022,CA,MID-VALLEY WRP NO.4,THERMAL,33.353111,-116.121389,5.5,7.604415514,0,CA0104973
1194,1669,CA05015,ICIS2022,CA,MINERAL WWTP,MINERAL,40.348333,-121.623611,0.75,1.036965752,0,CA0084069
1440,2160,CA05025,ICIS2022,CA,MOUNTAIN HOUSE WWTP,MOUNTAIN HOUSE,37.797778,-121.522222,0.91,1.258185112,0,CA0084271
1441,2161,CA05030,ICIS2022,CA,NORTHWEST WWTF,RIO VISTA,38.194306,-121.712444,0.27,0.373307671,0,CA0083771
1442,2162,CA05050,ICIS2022,CA,SCOTIA WWTF,SCOTIA,40.454694,-124.039111,5.0,6.913105013,0,CA0006017
1443,2163,CA05060,ICIS2022,CA,THUNDER VALLEY CASINO WWTP,LINCOLN,38.839111,-121.307556,0.875,1.209793377,0,CA0084697
1444,2164,CO02820,ICIS2022,CO,LA JUNTA CITY OF,LA JUNTA,37.9869,-103.529444,2.5,3.456552506,0,CO0021261
1445,2165,CO02830,ICIS2022,CO,SOUTHERN UTE INDIAN TRIBE,IGNACIO,37.104167,-107.631528,0.8,1.106096802,0,CO0022853
1728,2511,CO02835,ICIS2022,CO,TOWAOC LAGOON 1,TOWAOC,37.185417,-108.7205,0.0,0.0,0,COG587103
1729,2512,CO02840,ICIS2022,CO,TOWAOC LAGOON 2,TOWAOC,37.186417,-108.700611,0.0,0.0,0,COG587101
1730,2513,FL03810,ICIS2022,FL,DISTRICT II WWTF,JACKSONVILLE,30.4229306,-81.6184222,10.0,13.82621003,0,FL0026450
1731,2514,FL03815,ICIS2022,FL,MILITARY POINT INDUSTRIAL LAGOON,PANAMA CITY,30.1156,-85.6305333,37.0,51.15697709,0,FL0002631
1732,2515,FL03820,ICIS2022,FL,MONTEREY WRF,JACKSONVILLE,30.3306031,-81.6011646,3.6,4.977435609,0,FL0023604
1733,2516,FL03825,ICIS2022,FL,NASSAU REGIONAL WWTF,YULEE,30.6216389,-81.5530861,2.0,2.765242005,0,FL0116793
1734,2517,FL03830,ICIS2022,FL,PALM BEACH COUNTY SOUTHERN REGION WATER RECLAMATION FACILITY,BOYNTON BEACH,26.4867611,-80.1711028,30.0,41.47863008,0,FL0041424
1735,2518,FL03835,ICIS2022,FL,PASCO COUNTY UTILITIES - MASTER REUSE SYSTEM,NEW PORT RICHEY,28.320111,-82.4185,26.75,36.98511182,0,FL0127272
1736,2519,GA03450,ICIS2022,GA,"ABBEVILLE, CITY OF (ABBEVILLE WPCP)",ABBEVILLE,31.995918,-83.296967,0.29,0.400960091,0,GA0047643
1737,2520,GA03455,ICIS2022,GA,"AMERICUS, CITY OF (MILL CREEK WPCP)",AMERICUS,32.037412,-84.229801,2.2,3.041766206,0,GA0047767
1740,2523,GA03465,ICIS2022,GA,"AUGUSTA, CITY OF (SPIRIT CREEK WPCP)",AUGUSTA,33.313135,-81.943256,0.3406,0.470920713,0,GA0047147
1741,2524,GA03480,ICIS2022,GA,"BLUE RIDGE, CITY OF (BLUE RIDGE WPCP)",BLUE RIDGE,34.883913,-84.305761,0.39,0.539222191,0,GA0037583
1742,2525,GA03485,ICIS2022,GA,BRUNSWICK-GLYNN COUNTY JOINT WATER & SEWER COMMISSION (EXIT 29 WPCP),BRUNSWICK,31.128744,-81.582424,1.5,2.073931504,0,GA0038938
1743,2526,GA03490,ICIS2022,GA,BRUNSWICK-GLYNN COUNTY JWSC (SAINT SIMONS ISLAND WPCP),SAINT SIMONS ISLAND,31.186831,-81.385266,2.9,4.009600907,0,GA0021521
1744,2527,GA03500,ICIS2022,GA,CHEROKEE  COUNTY WATER & SEWERAGE AUTHORITY (RIVERBEND WWTP),BALL GROUND,34.299813,-84.393542,0.0,0.0,0,GA0050242
1745,2528,GA03510,ICIS2022,GA,CHEROKEE COUNTY WATER & SEWERAGE AUTHORITY (FITZGERALD CREEK WPCP),WOODSTOCK,34.099428,-84.447093,4.42,6.111184831,0,GA0038555
1746,2529,GA03515,ICIS2022,GA,CHEROKEE COUNTY WATER & SEWERAGE AUTHORITY (ROSE CREEK WPCP),WOODSTOCK,34.136429,-84.567925,2.7,3.733076707,0,GA0046451
1747,2530,GA03525,ICIS2022,GA,COLUMBUS WATER WORKS (COLUMBUS CSO),COLUMBUS,32.445894,-84.982037,32.3,44.65865838,0,GA0036838
1748,2531,GA03565,ICIS2022,GA,"CUMMING, CITY OF  (BETHELVIEW ROAD WPCP)",CUMMING,34.196355,-84.189286,2.36,3.262985566,0,GA0046019
1749,2532,GA03575,ICIS2022,GA,"DALLAS, CITY OF (PUMPKINVINE CREEK WPCP)",DALLAS,33.960876,-84.835156,0.0,0.0,0,GA0039241
1750,2533,GA03600,ICIS2022,GA,FORSYTH COUNTY DEPARTMENT OF WATER & SEWER (DICK CREEK WRF),SUWANEE,34.087492,-84.154012,0.59,0.815746391,0,GA0038563
1751,2534,GA03605,ICIS2022,GA,FORSYTH COUNTY DEPARTMENT OF WATER AND SEWER (FOWLER & SHAKERAG WRF),SUWANEE,34.058917,-84.114791,6.0,8.295726015,0,GA0038954
1752,2535,GA03610,ICIS2022,GA,FORSYTH COUNTY DEPARTMENT OF WATER AND SEWER (FOWLER WRF),CUMMING,34.153828,-84.213499,5.0,6.913105013,0,GA0038695
1753,2536,GA03615,ICIS2022,GA,FORSYTH COUNTY DEPARTMENT OF WATER AND SEWER (JAMES CREEK WRF),SUWANEE,34.128152,-84.123769,1.26,1.742102463,0,GA0050238
1755,2538,GA03620,ICIS2022,GA,FULTON COUNTY PUBLIC WORKS DEPARTMENT (LITTLE BEAR CREEK WPCP),CHATTAHOOCHEE HILLS,33.558148,-84.699598,0.1,0.1382621,0,GA0047104
1757,2540,GA03625,ICIS2022,GA,GEORGIA DEPARTMENT OF CORRECTIONS (ROGERS STATE PRISON WPCP),REIDSVILLE,32.006412,-82.156504,0.85,1.175227852,0,GA0022900
1758,2541,GA03630,ICIS2022,GA,GWINNETT COUNTY (F WAYNE HILL WATER RESOURCES CENTER),BUFORD,34.05933,-84.016005,0.45,0.622179451,0,GAG960001
1760,2543,GA03635,ICIS2022,GA,GWINNETT COUNTY BOARD OF COMMISSIONERS (F. WAYNE HILL WRC),BUFORD,34.058903,-84.016176,32.77,45.30849025,0,GA0038130
1762,2545,GA03645,ICIS2022,GA,"HAWKINSVILLE, CITY OF (NORTH WPCP)",HAWKINSVILLE,32.306803,-83.471227,0.473,0.653979734,0,GA0046027
1763,2546,GA03650,ICIS2022,GA,HENRY COUNTY WATER AUTHORITY (INDIAN CREEK WRF),MCDONOUGH,33.333103,-84.141011,0.0,0.0,0,GA0050241
2531,3342,GA03660,ICIS2022,GA,"HINESVILLE, CITY OF (PEACOCK CREEK WRF)",HINESVILLE,31.849,-81.637,1.086,1.501526409,0,GA0038792
2532,3343,GA03665,ICIS2022,GA,JACKSON COUNTY WATER & SEWER AUTHORITY (MIDDLE OCONEE WPCP),JEFFERSON,34.096306,-83.603455,0.49,0.677484291,0,GA0002712
2835,3729,GA03680,ICIS2022,GA,JEKYLL ISLAND STATE PARK AUTHORITY (JEKYLL ISLAND WPCP),JEKYLL ISLAND,31.044071,-81.421199,0.335,0.463178036,0,GA0020508
2836,3730,GA03690,ICIS2022,GA,LEE COUNTY UTILITIES AUTHORITY (KINCHAFOONEE CREEK WPCP),LEESBURG,31.633447,-84.181093,0.6,0.829572602,0,GA0026603
3053,3996,GA03700,ICIS2022,GA,"MADISON, CITY OF (INDIAN CREEK WRF)",MADISON,33.54786,-83.491239,1.0,1.382621002,0,GA0038741
3071,4014,GA03725,ICIS2022,GA,PAULDING COUNTY WATER SYSTEM (PUMPKINVINE CREEK WRF),ACWORTH,34.068256,-84.768887,0.604,0.835103086,0,GA0039021
3076,4019,GA03745,ICIS2022,GA,RABUN COUNTY WATER & SEWER AUTHORITY (RABUN COUNTY WRF),RABUN GAP,34.953303,-83.374614,0.183,0.253019643,0,GA0039152
3077,4020,GA03775,ICIS2022,GA,"TYBEE ISLAND, CITY OF (TYBEE ISLAND WPCP)",TYBEE ISLAND,32.024147,-80.852748,1.15,1.590014153,0,GA0020061
3082,4025,IA07845,ICIS2022,IA,HUXLEY CITY OF STP,HUXLEY,41.89964,-93.56833,0.85,1.175227852,0,IA0083518
3083,4026,IA07990,ICIS2022,IA,WASHBURN AREA-STP BLACK HAWK COUNTY,WASHBURN,42.41774,-92.28055,0.1175,0.162457968,0,IA0074241
3084,4027,IL04660,ICIS2022,IL," NAUVOO STP, CITY OF",NAUVOO,40.541667,-91.398333,0.34,0.470091141,0,IL0023531
3091,4034,IL04830,ICIS2022,IL,"BETHANY STP, VILLAGE OF",BETHANY,39.64,-88.733333,0.2,0.276524201,0,IL0023051
3094,4037,IL04870,ICIS2022,IL,"BOLINGBROOK WRF #2, VILLAGE OF",BOLINGBROOK,41.711111,-88.113889,3.0,4.147863008,0,IL0032735
3097,4040,IL04880,ICIS2022,IL,"BRADFORD STP, VILLAGE OF",BRADFORD,40.307389,-90.070111,0.6,0.829572602,0,IL0022195
3135,4078,IL04930,ICIS2022,IL,"BURLINGTON NORTH STP, VILLAGE OF",BURLINGTON,42.061111,-88.536111,0.94,1.299663742,0,IL0078387
3143,4086,IL04940,ICIS2022,IL,"CAMBRIA STP, VILLAGE OF",CAMBRIA,37.781667,-89.13,0.16,0.22121936,0,ILG580045
3150,4093,IL04945,ICIS2022,IL,"CAMBRIDGE STP, VILLAGE OF",CAMBRIDGE,41.302778,-90.216667,0.8,1.106096802,0,IL0061255
3154,4097,IL05000,ICIS2022,IL,CENTRAL ALEXANDER COUNTY SD STP,OLIVE BRANCH,37.173611,-89.371111,0.1375,0.190110388,0,ILG580257
3161,4104,IL05015,ICIS2022,IL,CHATSWORTH STP,CHATSWORTH,40.758333,-88.278333,0.184,0.254402264,0,ILG580091
3168,4111,IL05035,ICIS2022,IL,CHILLICOTHE SD,CHILLICOTHE,40.89724,-89.49557,0.0,0.0,0,ILX0116SC
3176,4119,IL05370,ICIS2022,IL,"FRANKFORT, VILLAGE OF - REGIONAL WWTP",FRANKFORT,41.519167,-87.8575,4.67,6.456840082,0,IL0072192
3177,4120,IL05415,ICIS2022,IL,"GLASFORD STP, VILLAGE OF",GLASFORD,40.565,-89.806667,0.26,0.359481461,0,IL0022527
3179,4122,IL05470,ICIS2022,IL,"HAMEL STP, VILLAGE OF",HAMEL,38.881667,-89.85,0.105,0.145175205,0,ILG580011
3182,4125,IL05500,ICIS2022,IL,HENNEPIN PUBLIC WATER DISTRICT WWTP,HENNEPIN,41.265,-89.343333,0.3,0.414786301,0,IL0025313
3193,4136,IL05555,ICIS2022,IL,HOMER WWTP,HOMER,40.031667,-87.944417,0.147,0.203245287,0,IL0050300
3197,4140,IL05635,ICIS2022,IL,"ITASCA, VILLAGE OF - PROSPECT AVENUE WWTP",ITASCA,41.977,-87.9971,3.2,4.424387208,0,IL0079073
3213,4156,IL05730,ICIS2022,IL,LAKE OF EGYPT SEWER DIST STP,MARION,37.626667,-88.941667,0.225,0.311089726,0,ILG580053
3218,4161,IL05735,ICIS2022,IL,"LAKEWOOD STP, VILLAGE OF",LAKEWOOD,42.226667,-88.401667,2.95,4.078731957,0,IL0045446
3232,4175,IL05755,ICIS2022,IL,LCDPW-DIAMOND-SYLVAN LAKE WRF,MUNDELEIN,42.241667,-88.025,0.34,0.470091141,0,IL0022080
3233,4176,IL05785,ICIS2022,IL,"LOAMI STW, VILLAGE OF",LOAMI,39.666389,-89.843333,0.25,0.345655251,0,ILG580275
3237,4180,IL05915,ICIS2022,IL,"MOUNT STERLING STP, CITY OF",MOUNT STERLING,39.955,-90.763333,0.25,0.345655251,0,ILG580089
3245,4188,IL05975,ICIS2022,IL,"NEW WINDSOR STP, VILLAGE OF ",NEW WINDSOR,41.208333,-90.446389,0.1,0.1382621,0,IL0079162
3246,4189,IL06140,ICIS2022,IL,"POPLAR GROVE SOUTH STP, VILLAGE OF",POPLAR GROVE,42.3339,-88.846,1.0,1.382621002,0,IL0071447
3252,4195,IL06185,ICIS2022,IL,REND LAKE CONSERVANCY DISTRICT - STP,EWING,38.088333,-88.845,0.5,0.691310501,0,IL0065111
3266,4209,IL06335,ICIS2022,IL,SOUTH FORK SD STP,TOVEY,39.585,-89.418333,0.102,0.141027342,0,IL0050148
3267,4210,IL06340,ICIS2022,IL,SOUTH WILMINGTON EAST BROOKLYN STP,SOUTH WILMINGTON,41.176667,-88.265,0.1,0.1382621,0,IL0054321
3751,4716,IL06360,ICIS2022,IL,"ST ANNE STP, VILLAGE OF",SAINT ANNE,41.048694,-87.656389,0.154,0.212923634,0,IL0025755
3753,4718,IL06455,ICIS2022,IL,THOMSON MUNICIPAL WASTEWATER TREATMENT PLANT,THOMSON,41.968056,-90.121111,0.8,1.106096802,0,IL0073890
3754,4719,IL06460,ICIS2022,IL,"TISKILWA STP, VILLAGE OF",TISKILWA,41.29,-89.485,0.12,0.16591452,0,IL0025160
4444,5635,IL06490,ICIS2022,IL,TUSCOLA - SOUTHSIDE STP,TUSCOLA,39.785556,-88.272778,0.75,1.036965752,0,IL0026107
4445,5636,IL06610,ICIS2022,IL,"WEST CITY STP, VILLAGE OF",BENTON,38.018333,-88.938333,0.1,0.1382621,0,ILG580215
4446,5637,IL06630,ICIS2022,IL,WILLIAMSFIELD  WWTP,WILLIAMSFIELD,40.928333,-90.01,0.1,0.1382621,0,ILG580087
4447,5638,IN05000,ICIS2022,IN,CLEVELAND-CLIFFS LLC WWTP,BURNS HARBOR,41.620444,-87.146333,1.05,1.451752053,0,INJ060801
4448,5639,IN05050,ICIS2022,IN,TRICO WATER RESOURCE RECOVERY FACILITY,BOONE COUNTY,39.9375,-86.242,5.72,7.908592134,0,IN0055760
4449,5640,IN05055,ICIS2022,IN,WINFIELD WWTP,CROWN POINT,41.413806,-87.250889,0.33,0.456264931,0,IN0058343
4717,5932,KY02830,ICIS2022,KY,BATH COUNTY INDUSTRIAL PARK,OWINGSVILLE,38.127222,-83.769444,0.147,0.203245287,0,KY0106887
4718,5933,KY02835,ICIS2022,KY,BELFRY WWTP,BELFRY,37.62417,-82.27208,0.0,0.0,0,KY0108260
4719,5934,KY02850,ICIS2022,KY,CROFTON WWTP,CROFTON,37.0525,-87.472222,0.12,0.16591452,0,KY0066591
4720,5935,KY02860,ICIS2022,KY,LAKE CITY WWTP,GRAND RIVERS,37.040278,-88.232222,0.0,0.0,0,KY0110795
4721,5936,KY02865,ICIS2022,KY,NEW MARION WWTP,MARION,37.331667,-88.081389,0.0,0.0,0,KY0113247
4722,5937,KY02875,ICIS2022,KY,OLDHAM COUNTY ENVIRONMENTAL AUTHORITY REGIONAL WWTP,CRESTWOOD,38.325,-85.545167,0.0,0.0,0,KY0111716
4723,5938,LA02925,ICIS2022,LA,CARVILLE WWTF,SAINT GABRIEL,30.229167,-91.098333,0.214,0.295880895,0,LA0115771
4725,5940,LA02930,ICIS2022,LA,COUNTRY CLUB SUBDIVISION WWTP,THIBODAUX,29.777778,-90.797778,0.181,0.250254401,0,LA0118346
4726,5941,LA02935,ICIS2022,LA,DOGWOOD SUBDIVISION SOUTHPOND,HAUGHTON,32.569444,-93.633889,0.46,0.636005661,0,LA0059471
4727,5942,LA02940,ICIS2022,LA,LAKESHORE SUBDIVISION WASTEWATER TREATMENT FACILITY,MONROE,32.552778,-91.999167,0.5,0.691310501,0,LA0047341
4728,5943,LA02955,ICIS2022,LA,MINDEN DIESEL POWER PLANT,MINDEN,32.609167,-93.290278,0.5,0.691310501,0,LA0109886
4729,5944,LA02960,ICIS2022,LA,MINDEN STEAM POWER PLANT,MINDEN,32.603611,-93.295,0.5,0.691310501,0,LA0109894
4992,6252,LA02965,ICIS2022,LA,OAK HARBOR EAST STP,SLIDELL,30.221389,-89.778056,0.724,1.001017606,0,LA0117765
4993,6253,LA02975,ICIS2022,LA,ST TAMMANY PARISH-CROSS GATE,SLIDELL,30.308333,-89.723611,0.9,1.244358902,0,LA0048941
5476,6795,LA02980,ICIS2022,LA,ST. TAMMANY PARISH GOVERNMENT - CASTINE REGIONAL SEWAGE TREATMENT PLANT,MANDEVILLE,30.369167,-90.016944,0.919,1.270628701,0,LA0120154
5477,6796,LA02990,ICIS2022,LA,"THIBODAUX, CITY OF- NORTH THIBODAUX WWTP",THIBODAUX,29.834444,-90.803889,0.0,0.0,0,LA0127208
5478,6797,LA02995,ICIS2022,LA,WESTWOOD REGIONAL STP,MANDEVILLE,30.409167,-90.076111,0.472,0.652597113,0,LA0063991
5479,6798,LA03000,ICIS2022,LA,WINN CORRECTIONAL CENTER,WINNFIELD,31.845,-92.781944,0.15,0.20739315,0,LA0107000
5620,6987,MD01720,ICIS2022,MD,ALLEGANY COUNTY COMBINED SEWER,ALLEGHANY COUNTY,39.48528,-79.04167,1.14,1.576187943,0,MD0067407
5635,7002,MD01735,ICIS2022,MD,PINEY ORCHARD WWTP,ODENTON,39.0331,-76.4402,0.7,0.967834702,0,MD0059145
5636,7003,MI03940,ICIS2022,MI,HANNAHVILLE INDIAN COMM. WWTP,WILSON,45.69703,-87.336472,0.172,0.237810812,0,MI0057366
5645,7012,MI03950,ICIS2022,MI,ISABELLA CO LANDFILL,MOUNT PLEASANT,43.634694,-84.792111,0.36,0.497743561,0,MI0054003
5656,7023,MI03955,ICIS2022,MI,ISABELLA RESERVATION WWTP,MOUNT PLEASANT,43.591253,-84.700603,0.58,0.801920181,0,MI0054861
5661,7028,MI03970,ICIS2022,MI,UNION TWP WWTP,MOUNT PLEASANT,43.599492,-84.774788,1.2,1.659145203,0,MI0055808
5684,7051,MN01865,ICIS2022,MN,APPLETON WWTP,APPLETON,45.2016305,-96.0326714,0.44,0.608353241,0,MN0021890
5696,7063,MN01990,ICIS2022,MN,BYRON WWTP,BYRON,44.0517106,-92.6431343,1.4,1.935669403,0,MN0049239
5703,7070,MN02010,ICIS2022,MN,CENTRAL IRON RANGE SANITARY SEWER DISTRICT WWTP,CHISHOLM,47.4794138,-92.8419213,5.0,6.913105013,0,MN0020117
5713,7080,MN02095,ICIS2022,MN,CRYSTAL LAKE FLOCCULATION TREATMENT FACILITY,ROBBINSDALE,45.0217206,-93.3268998,0.72,0.995487122,0,MN0069957
5724,7091,MN02245,ICIS2022,MN,GLACIAL LAKES SSWD,SPICER,45.2572401,-94.8464585,0.889,1.229150071,0,MN0052752
5728,7095,MN02280,ICIS2022,MN,GREENFIELD WWTP,GREENFIELD,45.0812713,-93.7314712,0.1,0.1382621,0,MN0063762
6486,7871,MN02515,ICIS2022,MN,LOWER SIOUX WWSL,REDWOOD FALLS,44.514694,-94.985325,0.1,0.1382621,0,MN0061433
6487,7872,MN02610,ICIS2022,MN,MILLE LACS WWTF,ONAMIA,46.178104,-93.799383,0.31,0.428612511,0,MN0064637
6488,7873,MN02680,ICIS2022,MN,ORONOCO WWTP,ORONOCO,44.1665326,-92.5355253,0.0,0.0,0,MN0071421
6489,7874,MN02785,ICIS2022,MN,RICH PRAIRIE SEWER TREATMENT FACILITY,PIERZ,45.9359253,-94.0796867,0.0,0.0,0,MNG585211
6490,7875,MN02865,ICIS2022,MN,SHETEK AREA WATER & SEWER DISTRICT WWTP,CURRIE,44.0692363,-95.6329588,0.0,0.0,0,MN0070947
6491,7876,MN02885,ICIS2022,MN,SMSC WATER RECLAMATION FACILITY,PRIOR LAKE,44.72507,-93.46468,0.63,0.871051232,0,MN0067938
6492,7877,MO07820,ICIS2022,MO,FESTUS INTERIM WEST WWTF,FESTUS,38.2331135,-90.428444,0.2,0.276524201,0,MO0122777
6835,8247,MO07830,ICIS2022,MO,HERMANN INDUSTRIAL TRACT LAGOON,HERMANN,38.7070246,-91.408249,0.32,0.442438721,0,MO0116009
6836,8248,MO07875,ICIS2022,MO,JCPSD LOWER BIG RIVER WWTP,HOUSE SPRINGS,38.4224439,-90.588858,0.198,0.273758958,0,MO0115428
6837,8249,MO07885,ICIS2022,MO,JCPSD MIRASOL WWTP,EUREKA,38.4741134,-90.624755,0.9,1.244358902,0,MO0134147
6934,8419,MO07895,ICIS2022,MO,JCPSD RAINTREE PLANTATION WWTP,HILLSBORO,38.2657194,-90.599171,0.17,0.23504557,0,MO0099473
6935,8420,MO08045,ICIS2022,MO,PIKE CREEK SEWER DISTRICT WWTF,POPLAR BLUFF,36.7180285,-90.478027,0.473934,0.655271102,0,MO0124427
7204,8751,MO08055,ICIS2022,MO,POTOSI WWTF #2,CADET,37.9380602,-90.731357,0.174,0.240576054,0,MO0099732
7303,8898,MS04180,ICIS2022,MS,BOGUE CHITTO WASTEWATER TREATMENT FACILITY,PHILADELPHIA,32.840278,-88.938889,0.11,0.15208831,0,MS0043478
7304,8899,MS04190,ICIS2022,MS,NEW HARMONY WWTF,PHILADELPHIA,32.768069,-89.274525,0.2,0.276524201,0,MS0058645
7421,9050,MS04200,ICIS2022,MS,PEARL RIVER WASTEWATER TREATMENT PLANT,PHILADELPHIA,32.787222,-89.205017,0.77,1.064618172,0,MS0053503
7422,9051,MT01690,ICIS2022,MT,CORVALLIS WWTF,CORVALLIS,46.319167,-114.105833,0.1349,0.186515573,0,MTX000122
7423,9052,MT01715,ICIS2022,MT,TOWN OF DARBY WWTF,DARBY,46.026111,-114.172222,0.1506,0.208222723,0,MTG580011
7424,9053,NC03295,ICIS2022,NC,CHEROKEE WASTEWATER TREATMENT PLANT,CHEROKEE,35.467436,-83.351144,3.0,4.147863008,0,NC0052469
7425,9054,ND03035,ICIS2022,ND,FORT YATES LAGOON SYSTEM,FORT YATES,46.0815,-100.6525,0.385,0.532309086,0,NDG589312
7961,9954,ND03040,ICIS2022,ND,FOUR BEARS WASTEWATER TREATMENT SYSTEM,NEW TOWN,47.971972,-102.624028,0.15,0.20739315,0,NDG589106
8542,10593,ND03060,ICIS2022,ND,GREEN ACRE WASTEWATER TREATMENT LAGOONS,ROLETTE,48.8305,-99.697111,0.105,0.145175205,0,NDG589403
9340,11455,ND03160,ICIS2022,ND,MANDAREE WASTEWATER TREATMENT LAGOONS,NEW TOWN,47.4653577,-101.939722,0.14,0.19356694,0,NDG589107
9341,11456,ND03245,ICIS2022,ND,OJIBWA MILLENNIUM SCHOOL WASTEWATER TREATMENT LAGOONS,ROLETTE,48.810639,-99.780306,3.71,5.129523919,0,NDG589410
9342,11457,NV00500,ICIS2022,NV,MOODY LANE REGIONAL WATER RECLAMATION FACILITY,FALLON,39.51505,-118.800431,0.499,0.68992788,0,NV0023582
9631,11962,NY06370,ICIS2022,NY,CALVERTON SEWER DISTRICT & WWTF,CALVERTON,40.910778,-72.79475,1.759,2.432030343,0,NY0025453
9632,11963,OH08865,ICIS2022,OH,HEATHER HILL CARE COMMUNITIES,CHARDON,41.5363,-81.22501,0.1,0.1382621,0,OH0083984
10602,13050,OH09140,ICIS2022,OH,ROLLING HILLS SUBDIV WWTP,BYESVILLE,39.94777,-81.56294,0.1,0.1382621,0,OH0075809
10625,13074,OH09285,ICIS2022,OH,WOODBRAN REALTY WWTP,WOODMERE,41.45616,-81.47498,0.52,0.718962921,0,OH0044555
10646,13096,OK04900,ICIS2022,OK,CHICKASAW TRIBAL UTILITIES AUTHORITY,THACKERVILLE,33.72914,-97.15752,0.96,1.327316162,0,OK0045721
10647,13097,OK04930,ICIS2022,OK,OOWA / TSC,PRYOR,36.223889,-95.263889,2.12,2.931156525,0,OK0034568
10648,13098,PR00450,ICIS2022,PR,PRASA PARCELAS BORINQUEN WWTP,CAGUAS,18.188333,-66.048333,0.1945,0.268919785,0,PR0025101
10649,13099,PR00455,ICIS2022,PR,PRASA PATILLAS WWTP,PATILLAS,18.001944,-66.011667,1.1,1.520883103,0,PR0020753
10650,13100,PR00465,ICIS2022,PR,PRASA RIO GRANDE ESTATES WWTP,RIO GRANDE,18.383333,-65.791667,0.75,1.036965752,0,PR0023264
10815,13287,PR00470,ICIS2022,PR,PRASA UNIBON WWTP,MOROVIS,18.333611,-66.374444,0.253,0.349803114,0,PR0024902
10874,13348,PR00475,ICIS2022,PR,"VILLAS DEL GIGANTE, CAROLINA",CAROLINA,18.0,-56.166667,0.1,0.1382621,0,PR0026042
10881,13355,SC01640,ICIS2022,SC,HILTON HEAD PSD REVERSE OSMOSIS WTP,BEAUFORT,32.210774,-80.702133,2.0,2.765242005,0,SC0048526
10898,13372,SD00530,ICIS2022,SD,FORT THOMPSON-EAST,FORT THOMPSON,44.070278,-99.402222,0.14,0.19356694,0,SDG589205
10918,13392,SD00575,ICIS2022,SD,"HARRISBURG, CITY OF","HARRISBURG, CITY OF",43.414755,-96.681416,0.45,0.622179451,0,SD0023728
10938,13412,SD00690,ICIS2022,SD,"LEAD, CITY OF - CSO",LEAD,44.355747,-103.753843,0.1,0.1382621,0,SD0027481
10941,13415,SD00815,ICIS2022,SD,"NORTH SIOUX CITY, CITY OF",NORTH SIOUX CITY,42.541333,-96.528528,0.1,0.1382621,0,SD0020567
10942,13416,SD00985,ICIS2022,SD,SDDOT-GLACIAL LAKES REST AREA,ABERDEEN,45.907792,-96.859056,0.14,0.19356694,0,SD0025313
10961,13435,SD01010,ICIS2022,SD,"SLIC-E HOLDINGS, LLC ",CUSTER,43.701611,-103.601444,0.1,0.1382621,0,SD0020443
10967,13441,SD01020,ICIS2022,SD,SOUTH DAKOTA ELLSWORTH DEVELOPMENT AUTHORITY,BOX ELDER,44.10464,-102.99018,0.0,0.0,0,SD0028611
11207,13694,SD01155,ICIS2022,SD,"WATERTOWN, CITY OF",WATERTOWN,44.885028,-97.09925,0.1,0.1382621,0,SD0023370
11208,13695,SD01225,ICIS2022,SD,WOUNDED KNEE COMMUNITY LAGOON,PINE RIDGE,43.151361,-102.370667,0.135,0.186653835,0,SDG589513
11210,13697,TN02615,ICIS2022,TN,CITY OF PIPERTON WASTE WATER TREATMENT PLANT,PIPERTON,35.049985,-89.592666,3.0,4.147863008,0,TN0080764
11211,13698,TN02635,ICIS2022,TN,CLIFTON STP #2,CLIFTON,35.376784,-87.99661,0.19,0.26269799,0,TN0067423
11212,13699,TN02795,ICIS2022,TN,LAKELAND STP,LAKELAND,35.27329,-89.74072,0.6,0.829572602,0,TN0078255
11213,13700,TN02810,ICIS2022,TN,"LOWLAND INDUSTRIAL COMPLEX, INC. (FKA LIBERTY FIBERS CORPORATION) & WASTE INDUST",MORRISTOWN,36.150264,-83.209742,0.5,0.691310501,0,TN0068187
11214,13701,TN02825,ICIS2022,TN,MEMPHIS REGIONAL MEGASITE,STANTON,35.4256,-89.416,0.0,0.0,0,TN0081906
11215,13702,TN02840,ICIS2022,TN,MORGAN COUNTY ECONOMIC DEVELOPMENT BOARD WWTP,PETROS,36.100581,-84.445878,0.5,0.691310501,0,TN0059765
11216,13703,TN02970,ICIS2022,TN,TANASI SHORES WWTP,HENDERSONVILLE,36.30611,-86.53083,0.25,0.345655251,0,TN0060232
11217,13704,TN02990,ICIS2022,TN,TDOC - BLEDSOE COUNTY CORRECTIONAL COMPLEX (BCCX),PIKEVILLE,35.7375,-85.25,0.289,0.39957747,0,TN0056626
11218,13705,TN02995,ICIS2022,TN,TDOC - WEST TENNESSEE STATE PENITENTIARY,HENNING,35.6561,-89.7483,0.402,0.555813643,0,TN0057487
11219,13706,TN03015,ICIS2022,TN,TN DOC-TURNEY CENTER,ONLY,35.8275,-87.69,0.215,0.297263516,0,TN0058190
11331,13857,TN03025,ICIS2022,TN,TOWN OF OAKDALE WWTP,OAKDALE,35.986146,-84.5549,0.35,0.483917351,0,TN0058530
11332,13858,TN03070,ICIS2022,TN,WEST KNOX UD (WKUD) - MELTON HILL POTW,KNOXVILLE,35.8925,-84.2439,0.0,0.0,0,TN0080721
11709,14295,TX05855,ICIS2022,TX,A & M HEEP WWTP,HAYS COUNTY,30.061666,-97.797222,0.99,1.368794792,0,TX0125288
11710,14296,TX05860,ICIS2022,TX,ACTON MUD WWTF,GRANBURY,32.436666,-97.6975,0.93,1.285837532,0,TX0105163
11714,14300,TX05880,ICIS2022,TX,AJ BROWN PARKER CREEK WWTF,HUNTSVILLE,30.772222,-95.5125,4.15,5.73787716,0,TX0072974
11717,14303,TX05900,ICIS2022,TX,ANDY BOWIE WWTP,PORT ISABEL,26.137882,-97.173755,1.5,2.073931504,0,TX0023621
11721,14307,TX05935,ICIS2022,TX,BEACH ROAD MUD WWTP,MATAGORDA COUNTY,28.648611,-95.963333,0.1,0.1382621,0,TX0105988
11722,14308,TX05945,ICIS2022,TX,BELL CO WCID 1 WWTP 3,KILLEEN,31.04444,-97.668611,6.0,8.295726015,0,TX0125377
11723,14309,TX05950,ICIS2022,TX,BELL COUNTY WCID 1 WWTF,KILLEEN,30.938056,-97.666111,18.0,24.88717805,0,TX0024597
11724,14310,TX05955,ICIS2022,TX,BELL COUNTY WCID 1 WWTP 2,KILLEEN,31.110833,-97.705277,6.0,8.295726015,0,TX0102938
11726,14312,TX05970,ICIS2022,TX,BIG OAKS MUD WWTP,FORT BEND COUNTY,29.70227,-95.70082,0.7,0.967834702,0,TX0096911
11742,14328,TX06130,ICIS2022,TX,CENTRAL  MUD 1 WWTF,FORT BEND COUNTY,29.729722,-95.761944,3.3,4.562649308,0,TX0098957
11744,14330,TX06140,ICIS2022,TX,CHAMBERS COUNTY DISTRICT NO 1 WWTP,CHAMBERS COUNTY,29.706666,-94.910277,0.98,1.354968582,0,TX0128325
11772,14358,TX06325,ICIS2022,TX,CITY OF CRESSON WWTP 1,CRESSON,32.519722,-97.625555,0.15,0.20739315,0,TX0129640
11776,14362,TX06350,ICIS2022,TX,CITY OF DALLAS ELM FORK WTP,CARROLLTON,32.972222,-96.916388,5.0,6.913105013,0,TX0002372
11785,14371,TX06405,ICIS2022,TX,CITY OF ENNIS SURFACE WTF,ENNIS,32.273611,-96.645555,0.25,0.345655251,0,TX0125563
11787,14373,TX06425,ICIS2022,TX,CITY OF FREEPORT CENTRAL WWTF,FREEPORT,28.94444,-95.377222,2.25,3.110897256,0,TX0033332
11802,14388,TX06510,ICIS2022,TX,CITY OF HAWK COVE WWTP 1,QUINLAN,32.880639,-96.07744,0.2,0.276524201,0,TX0126691
11819,14405,TX06610,ICIS2022,TX,CITY OF LAMESA WWTP,LAMESA,32.711944,-101.946111,2.0,2.765242005,0,TX0129011
11820,14406,TX06615,ICIS2022,TX,CITY OF LEANDER WWTF,LEANDER,30.581389,-97.840278,2.25,3.110897256,0,TX0092151
11840,14426,TX06770,ICIS2022,TX,CITY OF PASADENA WWTP,PASADENA,29.664036,-95.142403,0.0,0.0,0,TX0134813
11842,14428,TX06780,ICIS2022,TX,CITY OF PENITAS WWTP,PENITAS,26.228055,-98.441111,0.75,1.036965752,0,TX0131491
11849,14435,TX06815,ICIS2022,TX,CITY OF RICHMOND SOUTH WWTP,RICHMOND,29.543055,-95.72,3.0,4.147863008,0,TX0129925
11850,14436,TX06820,ICIS2022,TX,CITY OF ROMA  2 WWTP,ROMA-LOS SAENZ,26.399,-99.0031,2.0,2.765242005,0,TX0117544
11887,14473,TX07060,ICIS2022,TX,COLONY MUD 1A WWTF,BASTROP COUNTY,30.126388,-97.372222,0.9,1.244358902,0,TX0125741
11888,14474,TX07070,ICIS2022,TX,COLUMBUS INDUSTRIAL PARK WWTP,COLUMBUS,29.713888,-96.586666,0.15,0.20739315,0,TX0116084
11893,14479,TX07110,ICIS2022,TX,CREEDSIDE RANCH WWTF,FULSHEAR,29.676944,-95.829444,0.0,0.0,0,TX0135879
11909,14495,TX07220,ICIS2022,TX,FISHING HARBOR WWTP,BROWNSVILLE,25.981388,-97.3375,0.25,0.345655251,0,TX0100242
11910,14496,TX07230,ICIS2022,TX,FORT BEND CNTY MUD 50 WWTP,FORT BEND COUNTY,29.69377,-95.764105,1.5,2.073931504,0,TX0129267
11912,14498,TX07240,ICIS2022,TX,FORT BEND COUNTY MUD 118 WWTP,FORT BEND COUNTY,29.645277,-95.727777,1.2,1.659145203,0,TX0116386
11913,14499,TX07245,ICIS2022,TX,FORT BEND COUNTY MUD 124 WWTP,FORT BEND COUNTY,29.751421,-95.78802,0.3,0.414786301,0,TX0119873
11914,14500,TX07250,ICIS2022,TX,FORT BEND COUNTY MUD 130 ,FORT BEND COUNTY,29.751944,-95.819722,0.3,0.414786301,0,TX0118109
11915,14501,TX07255,ICIS2022,TX,FORT BEND COUNTY MUD 134A WWTP,FORT BEND COUNTY,29.665277,-95.693333,0.6,0.829572602,0,TX0128791
11916,14502,TX07260,ICIS2022,TX,FORT BEND COUNTY MUD 146 WWTP,FORT BEND COUNTY,29.66597,-95.7518,1.2,1.659145203,0,TX0126004
11917,14503,TX07265,ICIS2022,TX,FORT BEND COUNTY MUD 185 WWTP,FORT BEND COUNTY,29.735276,-95.79528,0.35,0.483917351,0,TX0128708
11919,14505,TX07275,ICIS2022,TX,FORT BEND COUNTY MUD 41 WWTP,FORT BEND COUNTY,29.648055,-95.664722,0.5,0.691310501,0,TX0089249
11920,14506,TX07280,ICIS2022,TX,FORT BEND COUNTY MUD 50 INTERIM WWTP,FORT BEND COUNTY,29.693611,-95.765555,0.7,0.967834702,0,TX0100137
11921,14507,TX07285,ICIS2022,TX,FORT BEND COUNTY MUD 58 WWTP,FORT BEND COUNTY,29.738333,-95.829722,1.05,1.451752053,0,TX0126675
11922,14508,TX07290,ICIS2022,TX,FORT BEND COUNTY MUD 81 WWTP,FORT BEND COUNTY,29.656666,-95.928888,0.325,0.449351826,0,TX0106046
11924,14510,TX07300,ICIS2022,TX,FORT BEND COUNTY WCID 2,STAFFORD,29.615278,-95.519722,4.0,5.53048401,0,TX0099511
11927,14513,TX07320,ICIS2022,TX,FT BEND CO MUD WWTP 2,SUGAR LAND,29.662777,-95.676111,0.5,0.691310501,0,TX0132217
11928,14514,TX07325,ICIS2022,TX,FT BEND COUNTY MUD 151 WWTP,FORT BEND COUNTY,29.760833,-95.864722,1.2,1.659145203,0,TX0126764
11933,14519,TX07350,ICIS2022,TX,GAZLEY CREEK WWTP,SMITHVILLE,30.011111,-97.164722,0.5,0.691310501,0,TX0022951
11934,14520,TX07355,ICIS2022,TX,GENERATION PARK MANAGEMENT DISTRICT WWTP 2,CITY OF HOUSTON,29.903611,-95.180277,0.12,0.16591452,0,TX0133213
11936,14522,TX07365,ICIS2022,TX,GRAND MISSION MUD 1  WWTP,FORT BEND COUNTY,29.691388,-95.723888,2.11,2.917330315,0,TX0123749
11940,14526,TX07385,ICIS2022,TX,GULF COAST WAT.RECLM.CTR.-WWTP,GROVES,29.938888,-93.884166,5.32,7.355543733,0,TX0117960
11941,14527,TX07390,ICIS2022,TX,HANKAMER WWTF,HANKAMER,29.853611,-94.640833,0.1,0.1382621,0,TX0133523
11944,14530,TX07405,ICIS2022,TX,HARRIS CO MUD 1 WWTF,HOUSTON,30.10972,-95.53834,0.11,0.15208831,0,TX0129330
11949,14535,TX07430,ICIS2022,TX,HARRIS CO MUD 387 WWTP,HARRIS COUNTY,30.137894,-95.503866,1.5,2.073931504,0,TX0124907
11953,14539,TX07455,ICIS2022,TX,HARRIS COUNTY MUD  418,HOUSTON,29.96185,-95.71433,3.6,4.977435609,0,TX0126161
11955,14541,TX07465,ICIS2022,TX,HARRIS COUNTY MUD 122 WWTP,MISSOURI CITY,29.631666,-95.530555,0.25,0.345655251,0,TX0084484
11957,14543,TX07475,ICIS2022,TX,HARRIS COUNTY MUD 155 WWTP,HOUSTON,29.903055,-95.663333,1.55,2.143062554,0,TX0100161
11958,14544,TX07480,ICIS2022,TX,HARRIS COUNTY MUD 165 WWTP,HOUSTON,29.898203,-95.704507,2.0,2.765242005,0,TX0127388
11959,14545,TX07485,ICIS2022,TX,HARRIS COUNTY MUD 166 WWTP,HOUSTON,29.868611,-95.654444,0.25,0.345655251,0,TX0089494
11960,14546,TX07490,ICIS2022,TX,HARRIS COUNTY MUD 167 WWTP,HOUSTON,29.849166,-95.701666,1.5,2.073931504,0,TX0094307
11965,14551,TX07515,ICIS2022,TX,HARRIS COUNTY MUD 238 WWTP,HOUSTON,29.814166,-95.699722,0.825,1.140662327,0,TX0093891
11973,14559,TX07555,ICIS2022,TX,HARRIS COUNTY MUD 371 WWTP,HOUSTON,29.962222,-95.708611,0.25,0.345655251,0,TX0117129
11974,14560,TX07560,ICIS2022,TX,HARRIS COUNTY MUD 374 WWTP,HOUSTON,29.944722,-95.698333,0.65,0.898703652,0,TX0124974
11975,14561,TX07565,ICIS2022,TX,HARRIS COUNTY MUD 389 WWTP,HARRIS COUNTY,29.999722,-95.6625,0.3,0.414786301,0,TX0125881
11976,14562,TX07570,ICIS2022,TX,HARRIS COUNTY MUD 401 WWTP,HOUSTON,30.073888,-95.570277,0.6,0.829572602,0,TX0125687
11977,14563,TX07575,ICIS2022,TX,HARRIS COUNTY MUD 449 WWTP,CITY OF KATY,29.833055,-95.776666,0.96,1.327316162,0,TX0128082
11986,14572,TX07620,ICIS2022,TX,HARRIS-FORT BEND COUNTIES MUD 3 WWTP,HOUSTON,29.778926,-95.790408,0.67,0.926356072,0,TX0124451
11991,14577,TX07645,ICIS2022,TX,HIDALGO COUNTY MUD NO 1 WASTEWATER TREATMENT FACILITY,PENITAS,26.253611,-98.415833,0.95,1.313489952,0,TX0132101
11992,14578,TX07655,ICIS2022,TX,HIGHWAY 181 SOUTH WWTP,SAN ANTONIO,29.2775,-98.3325,0.15,0.20739315,0,TX0126969
11995,14581,TX07670,ICIS2022,TX,HOMER N TANNER JR REGIONAL WTP,AVINGER,32.863611,94.662222,0.0,0.0,0,TX0134490
11999,14585,TX07710,ICIS2022,TX,JACKRABBIT ROAD PUD WWTP,HOUSTON,29.802222,-95.720556,0.8,1.106096802,0,TX0076775
12001,14587,TX07720,ICIS2022,TX,JOINES ROAD REG WWTF,CAMERON,26.074166,-97.649444,0.51,0.705136711,0,TX0123498
12008,14594,TX07770,ICIS2022,TX,LAGUNA VISTA WWTP,CAMERON COUNTY,26.117777,-97.315,0.65,0.898703652,0,TX0117072
12009,14595,TX07775,ICIS2022,TX,LAKE MUD WWTP,HOUSTON,29.813333,-94.991111,0.24,0.331829041,0,TX0126187
12011,14597,TX07800,ICIS2022,TX,LAREDO/COLUMBIA SOLIDARITY BRIDGE WWTF,LAREDO,27.693888,-99.736944,0.16,0.22121936,0,TX0107395
12012,14598,TX07805,ICIS2022,TX,LAS LOMAS WWTP,KAUFMAN,32.692222,-96.361666,0.25,0.345655251,0,TX0129623
12014,14600,TX07815,ICIS2022,TX,LEE COUNTY FWSD 1 WWTP,DIME BOX,30.359465,-96.810921,0.42,0.580700821,0,TX0077429
12015,14601,TX07830,ICIS2022,TX,LIBERTY HILL REGIONAL WWTP,WILLIAMSON COUNTY,30.631944,-97.861666,4.0,5.53048401,0,TX0126195
12017,14603,TX07850,ICIS2022,TX,LOCKHART WWTP 2,CALDWELL COUNTY,29.87335,-97.624138,1.5,2.073931504,0,TX0113565
12019,14605,TX07860,ICIS2022,TX,LUCE BAYOU PUD WWTP,HOUSTON,30.061388,-95.0775,0.225,0.311089726,0,TX0074870
12023,14609,TX07885,ICIS2022,TX,MARTINEZ III WWTF,SAN ANTONIO,29.460555,-98.291944,0.15,0.20739315,0,TX0117536
12024,14610,TX07890,ICIS2022,TX,MARTINEZ IV WWTP,SAN ANTONIO,29.445277,98.2475,7.33,10.13461195,0,TX0129861
12028,14614,TX07940,ICIS2022,TX,MEXIA STATE SUPPORTED LIVING CENTER WWTP,MEXIA,31.695,-96.531944,0.45,0.622179451,0,TX0030775
12029,14615,TX07945,ICIS2022,TX,MILITARY HIGHWAY WSC WWTF,PROGRESO,26.128611,-98.1225,0.51,0.705136711,0,TX0116637
12033,14619,TX07965,ICIS2022,TX,MONTGOMERY COUNTY MUD NO 56 WWTP,MONTGOMERY COUNTY,30.127777,-95.3,0.1,0.1382621,0,TX0089672
12038,14624,TX08005,ICIS2022,TX,MUSTANG ISLAND S WWTP,PORT ARANSAS,27.754722,-97.126388,0.6,0.829572602,0,TX0091031
12041,14627,TX08025,ICIS2022,TX,NEWPORT MUD WWTP,HOUSTON,29.902931,-95.088575,1.3,1.797407303,0,TX0023230
12048,14634,TX08065,ICIS2022,TX,NORTHEAST WWTF,ALICE,27.771944,-98.0375,2.02,2.792894425,0,TX0091219
12050,14636,TX08075,ICIS2022,TX,NORTHLANDS WWTP,WILLIAMSON COUNTY,30.744166,-97.7425,1.5,2.073931504,0,TX0132233
12064,14650,TX08180,ICIS2022,TX,PENINSULA  WATER RECLAMATION PLANT,LEWISVILLE,33.208055,-96.988611,2.0,2.765242005,0,TX0124745
12076,14662,TX08290,ICIS2022,TX,REGIONAL WWTF,WEBB COUNTY,27.3676,-99.4956,1.5,2.073931504,0,TX0118443
12077,14663,TX08295,ICIS2022,TX,REID ROAD MUD 1 WWTP,HOUSTON,29.924722,-95.568888,1.75,2.419586754,0,TX0053325
12078,14664,TX08300,ICIS2022,TX,RELLIS CAMPUS WWTP,BRAZOS COUNTY,30.628888,-96.471944,0.1,0.1382621,0,TX0076023
12079,14665,TX08305,ICIS2022,TX,REMINGTON MUD 1  WWTP,HOUSTON,29.918333,-95.672222,1.1,1.520883103,0,TX0101371
12082,14668,TX08330,ICIS2022,TX,RIDDLEVILLE STREET WWTP,KARNES CITY,28.901666,-97.9075,0.8,1.106096802,0,TX0129984
12090,14676,TX08385,ICIS2022,TX,RONALD R COLLINS WATER RECLAMATION FACILITY,NEW BOSTON,33.4275,-94.236,2.25,3.110897256,0,TX0126098
12091,14677,TX08390,ICIS2022,TX,ROSITA VALLEY WWTP,EAGLE PASS,28.61368,-100.41935,1.5,2.073931504,0,TX0128589
12093,14679,TX08405,ICIS2022,TX,SABINAL WASTEWATER TREATMENT FACILITY,SABINAL,29.323635,-99.485182,0.34,0.470091141,0,TX0128597
12097,14683,TX08435,ICIS2022,TX,SANTA RITA UPPER MIDDLEBROOK WWTP,WILLIAMSON COUNTY,30.672777,-97.842222,0.0,0.0,0,TX0132969
12099,14685,TX08455,ICIS2022,TX,SEBASTIAN MUD WWTP,CAMERON COUNTY,26.336388,97.800277,0.225,0.311089726,0,TX0113000
12100,14686,TX08460,ICIS2022,TX,SEINNA PLANTATION MUD 1 WWTP 2,FORT BEND COUNTY,29.486722,-95.515889,1.2,1.659145203,0,TX0119539
12101,14687,TX08475,ICIS2022,TX,SOMBRERETILLO WWTP,LAREDO,27.6296,-99.5561,0.0,0.0,0,TX0134384
12103,14689,TX08485,ICIS2022,TX,SOMERVELL COUNTY WTP,GLEN ROSE,32.258055,-97.76666,0.24,0.331829041,0,TX0131911
12108,14694,TX08515,ICIS2022,TX,SPRING TRAILS WWTF,MONTGOMERY,30.088611,-95.375,1.08,1.493230683,0,TX0128295
12111,14697,TX08530,ICIS2022,TX,STANLEY CREEK WWTP 2,GUNTER,33.431381,-96.706539,0.95,1.313489952,0,TX0129224
12116,14702,TX08565,ICIS2022,TX,TAYLOR LANE WWTP,AUSTIN,30.269444,-97.551388,3.0,4.147863008,0,TX0129950
12117,14703,TX08570,ICIS2022,TX,TDCJ CLEMENS UNIT  WWTP,BRAZORIA,28.992676,-95.515858,0.54,0.746615341,0,TX0031569
12118,14704,TX08575,ICIS2022,TX,TDCJ DARRINGTON WWTP,BRAZORIA COUNTY,29.399444,-95.493888,0.8,1.106096802,0,TX0031585
12119,14705,TX08580,ICIS2022,TX,TDCJ ELLIS UNIT WWTP,HUNTSVILLE,30.8875,95.449722,0.85,1.175227852,0,TX0031607
12120,14706,TX08585,ICIS2022,TX,TDCJ ESTELLE UNIT ,HUNTSVILLE,30.876944,95.483889,1.5,2.073931504,0,TX0092789
12121,14707,TX08590,ICIS2022,TX,TDCJ FERGUSON UNIT WWTP,MADISON COUNTY,30.961666,-95.701666,0.975,1.348055477,0,TX0031615
12122,14708,TX08595,ICIS2022,TX,TDCJ JESTER 3 UNIT WWTP,FORT BEND COUNTY,29.621744,-95.711459,0.75,1.036965752,0,TX0089036
12123,14709,TX08600,ICIS2022,TX,TDCJ JESTER I UNIT WWTP,RICHMOND,29.635,-95.7095,0.315,0.435525616,0,TX0031674
12124,14710,TX08605,ICIS2022,TX,TDCJ LUTHER  UNIT WWTP,COURTNEY,30.261514,-96.057329,0.38,0.525395981,0,TX0089028
12125,14711,TX08610,ICIS2022,TX,TDCJ POWLEDGE UNIT  WWTF,ANDERSON COUNTY,31.729444,-95.802777,0.35,0.483917351,0,TX0089044
12126,14712,TX08615,ICIS2022,TX,TDCJ WAINRIGHT UNIT ,HOUSTON COUNTY,30.972817,-95.635291,0.98,1.354968582,0,TX0031593
12127,14713,TX08620,ICIS2022,TX,TDCJ WALLACE PACK UNIT WWTF,NAVASOTA,30.318772,-96.10595,0.5,0.691310501,0,TX0089010
12128,14714,TX08625,ICIS2022,TX,TDJC COFFIELD UNIT,ANDERSON COUNTY,31.788611,95.937222,2.85,3.940469857,0,TX0031577
12129,14715,TX08630,ICIS2022,TX,TERRELL UNIT WWTP,BRAZORIA COUNTY,29.297777,-95.541666,2.0,2.765242005,0,TX0115169
12132,14718,TX08645,ICIS2022,TX,THOMPSONS CREEK WWTP,BRYAN,30.588645,-96.423464,4.0,5.53048401,0,TX0128554
12133,14719,TX08650,ICIS2022,TX,THOROUGHBRED FARMS WWTP,AUSTIN,30.137106,-97.6716,0.65,0.898703652,0,TX0067466
12134,14720,TX08655,ICIS2022,TX,TIDWELL TIMBERS WWTP,HOUSTON,29.849722,-95.229722,0.488,0.674719049,0,TX0101460
12135,14721,TX08660,ICIS2022,TX,TOLEDO BEND DAM,BURKEVILLE,31.173397,-93.565634,1.2,1.659145203,0,TX0130109
12144,14730,TX08725,ICIS2022,TX,TURNING BASIN WWTP,BROWNSVILLE,25.962222,-97.394722,0.1,0.1382621,0,TX0074047
12149,14735,TX08785,ICIS2022,TX,WASTEWATER TREATMENT PLANT 2,NEW WAVERLY,30.538839,-95.49306,0.1,0.1382621,0,TX0087831
12156,14742,TX08830,ICIS2022,TX,WEST LAKE HOUSTON WWTF,HOUSTON,29.970277,-95.166944,0.3,0.414786301,0,TX0128244
12159,14745,TX08850,ICIS2022,TX,WESTWAY WWTF,HOUSTON,29.843333,-95.546944,0.995,1.375707897,0,TX0026875
12162,14748,TX08870,ICIS2022,TX,WILBARGER CREEK REGIONAL WWTF,PFLUGERVILLE,30.386388,-97.543333,2.0,2.765242005,0,TX0132179
12163,14749,TX08875,ICIS2022,TX,WILBARGER CREEK WWTP,MANOR,30.345277,-97.548888,2.0,2.765242005,0,TX0095184
12164,14750,TX08885,ICIS2022,TX,WILLOW CREEK FARMS MUD WWTF,WALLER COUNTY,29.773611,-95.891111,0.48,0.663658081,0,TX0128236
12165,14751,TX08890,ICIS2022,TX,WILLOW CREEK WWTP,PARKER COUNTY,32.511388,-98.048333,1.26,1.742102463,0,TX0023779
12225,14890,UT01260,ICIS2022,UT,PERRY / WILLARD REGIONAL WASTEWATER TREATMENT PLANT,WILLARD,41.426667,-112.061944,2.0,2.765242005,0,UT0025721
12453,15128,VA02380,ICIS2022,VA,DBHDS - CATAWBA HOSPITAL,CATAWBA,37.39111,-80.109444,0.12,0.16591452,0,VA0029475
12454,15129,VA02385,ICIS2022,VA,NORTH FORK REGIONAL WWTP,EDINBURG,38.828829,-78.532248,0.75,1.036965752,0,VA0090328
12457,15132,VI00025,ICIS2022,VI,NEW CRUZ BAY WWTP,ST. JOHN,18.328806,-64.809167,0.13,0.17974073,0,VI0040835
12734,15478,WA02535,ICIS2022,WA,WA PARKS LARRABEE WWTP,BELLINGHAM,48.6502342,-122.489052,0.47,0.649831871,0,WA0023787
12735,15479,WA02540,ICIS2022,WA,WILLAPA REGIONAL WASTEWATER TREATMENT PLANT,RAYMOND,46.6882553,-123.749901,5.82,8.046854235,0,WA0041041
13256,16097,WI06195,ICIS2022,WI,LUXEMBURG WASTEWATER PRETREATMENT FACILITY,LUXEMBURG,44.533333,-87.683333,0.4,0.553048401,0,WI0021911
13257,16098,WI06215,ICIS2022,WI,"US ARMY HEADQUARTERS, FORT MCCOY WWTP",SPARTA,43.944722,-90.783333,1.32,1.825059723,0,WI0022420
13258,16099,WI06225,ICIS2022,WI,WAZEE AREA WASTEWATER COMMISSION,BLACK RIVER FALLS,44.346343,-90.762762,0.462,0.638770903,0,WI0036889
13532,16487,WY00965,ICIS2022,WY,FORT WASHAKIE HOTSPRINGS LAGOON,FORT WASHAKIE,43.007222,-108.824722,0.267,0.369159808,0,WYG589101
